title,totalScore,reviewsCount,street,city,state,countryCode,website,phone,categoryName,url
Dr Amitabha Das,,0,"Specialists Consulting Room, 42 Parkside Cres",Campbelltown,New South Wales,AU,https://www.reshapeweightloss.com.au/,+61 2 9601 4000,Gastrointestinal surgeon,https://www.google.com/maps/search/?api=1&query=Dr%20Amitabha%20Das&query_place_id=ChIJmT5wXy7vEmsRKO2i9INqHpM
Dr. Mark Magdy,5,109,"Suite 30, Level 2/20-24 Gibbs St",Miranda,New South Wales,AU,http://drmarkmagdy.com.au/,+61 1300 376 243,Bariatric surgeon,https://www.google.com/maps/search/?api=1&query=Dr.%20Mark%20Magdy&query_place_id=ChIJXx9aKs25EmsRST6j-im3L6Y
Nepean Weight loss Surgery,4.8,18,40 Colless St,Penrith,New South Wales,AU,http://www.nepeanweightloss.com.au/,+61 2 4721 7533,Surgeon,https://www.google.com/maps/search/?api=1&query=Nepean%20Weight%20loss%20Surgery&query_place_id=ChIJX7rRPIuFEmsR-YlHRFE0Its
Dr Roy Hopkins - Upper GI & Bariatric Surgeon,5,18,"St George Private Hospital, Suite 14A, Level 5/1 South St",Kogarah,New South Wales,AU,https://www.sydneyuppergi.com.au/,+61 2 9188 4550,Gastrointestinal surgeon,https://www.google.com/maps/search/?api=1&query=Dr%20Roy%20Hopkins%20-%20Upper%20GI%20%26%20Bariatric%20Surgeon&query_place_id=ChIJLeOeOZG5EmsRbQQUsKia43U
Dr Edward Tong | Campbelltown,1,1,Suite 223 Level 2/4 Hyde Parade,Campbelltown,New South Wales,AU,https://dredwardtong.com/,+61 2 9057 6430,Surgeon,https://www.google.com/maps/search/?api=1&query=Dr%20Edward%20Tong%20%7C%20Campbelltown&query_place_id=ChIJSzKX8ybvEmsRe3yhiFwmJtU
Dr. Khalid Ahmed,,0,Unit 20/13 Digitaria Dr,Gledswood Hills,New South Wales,AU,http://dr-khalidahmed.online/,+61 493 557 733,Bariatric surgeon,https://www.google.com/maps/search/?api=1&query=Dr.%20Khalid%20Ahmed&query_place_id=ChIJ20WH88XtEmsRtPjk4zlKzTI
Northern Beaches Bariatric Surgery,5,6,"Suite 24, Building 7/49 Frenchs Forest Rd E",Frenchs Forest,New South Wales,AU,http://www.northernbeachesbariatricsurgery.com.au/,+61 2 9126 8963,Weight loss service,https://www.google.com/maps/search/?api=1&query=Northern%20Beaches%20Bariatric%20Surgery&query_place_id=ChIJkc4OMwurEmsRmaCxUdu1fZE
St George Obesity Surgery,5,29,"Suite 18 5/1 South St, St George Private Hospital",Kogarah,NSW,AU,http://www.stgeorgeobesitysurgery.com.au/,+61 2 9587 8813,Bariatric surgeon,https://www.google.com/maps/search/?api=1&query=St%20George%20Obesity%20Surgery&query_place_id=ChIJSQxOef-5EmsR-QmVp2LtrZk
Martin Surgery,4.8,82,Suite 2/3-5 Everton Rd,Strathfield,New South Wales,AU,http://www.martinsurgery.com.au/david_martin.html,+61 2 9747 6166,Surgeon,https://www.google.com/maps/search/?api=1&query=Martin%20Surgery&query_place_id=ChIJP4epxNm6EmsRt7TOBTosm-s
Sydney Sleeve Surgery,5,3,"Parkway San Clinic, Suite G12/172 Fox Valley Rd",Wahroonga,New South Wales,AU,https://sydneysleevesurgery.com.au/,+61 2 9980 6865,Specialized clinic,https://www.google.com/maps/search/?api=1&query=Sydney%20Sleeve%20Surgery&query_place_id=ChIJY6Z2iKynEmsRuvTfu0n8qT4
Dr Clement Tsang,4.6,34,Level 6 29/31 Dora St,Hurstville,New South Wales,AU,https://obesitycentre.com.au/,+61 2 9221 3919,Gastrointestinal surgeon,https://www.google.com/maps/search/?api=1&query=Dr%20Clement%20Tsang&query_place_id=ChIJLWTNEaK5EmsRwVLI4OFolhA
Advanced Surgicare Sydney,5,122,"St George Private Specialist Consulting Suites (entrance via, 131 Princes Highway, Level 5 Suites 501/502 South St",Kogarah,NSW,AU,https://www.advancedobesitysurgery.com.au/?utm_source=google&utm_medium=organic&utm_campaign=google-my-business-kog&utm_term=googlemybusinesskoga,+61 1300 551 533,Bariatric surgeon,https://www.google.com/maps/search/?api=1&query=Advanced%20Surgicare%20Sydney&query_place_id=ChIJjUgTFeS5EmsRTvAywL-3jjw
Dr Philip Le Page,4.2,10,"Suite 3, Ground Floor/1 Centennial Dr",Campbelltown,New South Wales,AU,http://www.drlepage.com.au/,+61 2 9126 8963,Specialized clinic,https://www.google.com/maps/search/?api=1&query=Dr%20Philip%20Le%20Page&query_place_id=ChIJ6ZzsTarvEmsRlPNuHkom7VA
Sydney Bariatric Clinic,4.6,51,"Westmead Specialist Centre, 9/16-18 Mons Rd",Westmead,New South Wales,AU,https://sydneybariatricclinic.com/,+61 2 9687 7019,Bariatric surgeon,https://www.google.com/maps/search/?api=1&query=Sydney%20Bariatric%20Clinic&query_place_id=ChIJ6Q8o3u2iEmsRRxdQwo8KonY
Sydney Bariatric Clinic,,0,Hilder St,Elderslie,New South Wales,AU,https://sydneybariatricclinic.com/,+61 2 9687 7019,Bariatric surgeon,https://www.google.com/maps/search/?api=1&query=Sydney%20Bariatric%20Clinic&query_place_id=ChIJka5i4IPxEmsRZpjrPcN0hhc
Dr Devesh Kaushal | Upper-GI & Weight Loss Surgeon,4.9,50,"Suite 26, Level 2/13 Digitaria Dr",Gregory Hills,New South Wales,AU,https://drdeveshkaushal.com.au/,+61 2 7906 8312,Gastrointestinal surgeon,https://www.google.com/maps/search/?api=1&query=Dr%20Devesh%20Kaushal%20%7C%20Upper-GI%20%26%20Weight%20Loss%20Surgeon&query_place_id=ChIJEcZY9-nvEmsRFOqdM8993Sw
Dr Ertugrul Durmush,4.2,26,Suite 2 Level 4/171 Bigge St,Liverpool,New South Wales,AU,http://lifeweightloss.com.au/,+61 2 9826 4111,Surgical center,https://www.google.com/maps/search/?api=1&query=Dr%20Ertugrul%20Durmush&query_place_id=ChIJf9DpHb-VEmsRmx1pM-C6mbg
Dr Rachel Kirby,,0,42 Parkside Cres,Campbelltown,New South Wales,AU,https://www.southwestsurgery.com.au/,+61 2 4625 4745,Surgeon,https://www.google.com/maps/search/?api=1&query=Dr%20Rachel%20Kirby&query_place_id=ChIJ-bPGCy_vEmsR4PM32rRUOng
Dr Ali Zarrouk,4.6,30,Suite 13/42 Parkside Cres,Campbelltown,New South Wales,AU,https://www.southwestsurgery.com.au/,+61 2 4625 4745,Surgeon,https://www.google.com/maps/search/?api=1&query=Dr%20Ali%20Zarrouk&query_place_id=ChIJH-TrxK3vEmsR9cApwZJVVHM
Dr Clement Tsang,,0,Suite 12/42 Parkside Cres,Campbelltown,New South Wales,AU,https://obesitycentre.com.au/,+61 2 9221 3919,Gastrointestinal surgeon,https://www.google.com/maps/search/?api=1&query=Dr%20Clement%20Tsang&query_place_id=ChIJ4zQa4lnvEmsRPman50u5N-4
Dr Devesh Kaushal | Upper-GI & Weight Loss Surgeon,5,2,4 Hyde Parade,Campbelltown,New South Wales,AU,https://drdeveshkaushal.com.au/,+61 2 7906 8312,Gastrointestinal surgeon,https://www.google.com/maps/search/?api=1&query=Dr%20Devesh%20Kaushal%20%7C%20Upper-GI%20%26%20Weight%20Loss%20Surgeon&query_place_id=ChIJc9dwf8nvEmsRwlqqHqZeO6Q
Dr Jason Maani Bariatric Surgery,5,83,"Level 3, Suite 3.02, 24/40 Bigge St",Liverpool,New South Wales,AU,https://www.drjasonmaani.com.au/,+61 1300 849 118,Bariatric surgeon,https://www.google.com/maps/search/?api=1&query=Dr%20Jason%20Maani%20Bariatric%20Surgery&query_place_id=ChIJ256UdTWVEmsRj7FBSF1qHDU
Betterhealth Quarter Specialist Suites,5,3,"Level 2, Suite 19/13 Digitaria Dr",Gledswood Hills,New South Wales,AU,,+61 2 8124 6737,Medical office,https://www.google.com/maps/search/?api=1&query=Betterhealth%20Quarter%20Specialist%20Suites&query_place_id=ChIJp5Cm5JTtEmsRrqilDOWzdqA
Dr John Jorgensen,4.8,24,1 South St,Kogarah,New South Wales,AU,http://www.drjohnjorgensen.com.au/,+61 2 9553 7288,Surgeon,https://www.google.com/maps/search/?api=1&query=Dr%20John%20Jorgensen&query_place_id=ChIJEf4EBOS5EmsRxpeEOL6lKtI
Dr Govind Krishna | Weight Loss & General Surgeon,4,1,"Lift, Lobby A, Suite 314/319 4 Hyde Parade",Campbelltown,New South Wales,AU,https://drgovindkrishna.com.au/,+61 2 9723 0509,Gastrointestinal surgeon,https://www.google.com/maps/search/?api=1&query=Dr%20Govind%20Krishna%20%7C%20Weight%20Loss%20%26%20General%20Surgeon&query_place_id=ChIJ89AEsK3vEmsR6iy5tiICIo4
The Sydney Institute for Obesity Surgery,4.6,18,185 Marion St,Leichhardt,New South Wales,AU,https://sios.com.au/,+61 2 8080 4644,Bariatric surgeon,https://www.google.com/maps/search/?api=1&query=The%20Sydney%20Institute%20for%20Obesity%20Surgery&query_place_id=ChIJowdj_pm6EmsRcDtni0KTjCY
WEIGHT LOSS & BEYOND - DR. MAIS HUSSEIN,,0,"SOMA Wellness Centre, 7 Gregory Hills Dr",Gledswood Hills,New South Wales,AU,http://weightlossandbeyond.com.au/,+61 2 4606 1400,Wellness Programme,https://www.google.com/maps/search/?api=1&query=WEIGHT%20LOSS%20%26%20BEYOND%20-%20DR.%20MAIS%20HUSSEIN&query_place_id=ChIJI44k7f_xEmsR5LVoMHpJMts
Advanced Surgicare - Dr V. Kuzinkovas,5,11,"Norwest Private Hospital Suite G3B, Ground Floor/9 Norbrik Dr",Bella Vista,NSW,AU,https://www.advancedobesitysurgery.com.au/?utm_source=google&utm_medium=organic&utm_campaign=google-my-business-bel&utm_term=googlemybusinessbell,+61 1300 551 533,Bariatric surgeon,https://www.google.com/maps/search/?api=1&query=Advanced%20Surgicare%20-%20Dr%20V.%20Kuzinkovas&query_place_id=ChIJm_t4ggCiEmsRuS6qenF3XbA
Dr. Roy Brancatisano,5,4,"Norwest Business Park, Suite 2, Level 1, HSS/17-19 Solent Cct",Norwest,New South Wales,AU,http://www.circleofcare.com.au/,+61 2 8711 0134,Surgeon,https://www.google.com/maps/search/?api=1&query=Dr.%20Roy%20Brancatisano&query_place_id=ChIJD9tPuuWhEmsRHMBoQtj7PuY
Dr John Ozmen | General & Upper-GI Surgeon,5,46,Unit 101/9 Norbrik Dr,Bella Vista,New South Wales,AU,https://drozmen.com.au/,+61 2 8039 4548,Gastrointestinal surgeon,https://www.google.com/maps/search/?api=1&query=Dr%20John%20Ozmen%20%7C%20General%20%26%20Upper-GI%20Surgeon&query_place_id=ChIJIfX7mwCiEmsRbBmM_SbmK2M
Dr Sandra Cabot,4.2,18,Unit 5/48 Anderson Rd,Smeaton Grange,New South Wales,AU,https://www.drsandracabotclinics.com.au/,+61 2 4655 4666,Medical clinic,https://www.google.com/maps/search/?api=1&query=Dr%20Sandra%20Cabot&query_place_id=ChIJfff2ScfwEmsRBiFAURIFchs
Advanced Surgicare,5,16,"Macarthur Specialist Consulting Suites Suite 114, Level 1 Building A/4 Hyde Parade",Campbelltown,NSW,AU,https://www.advancedobesitysurgery.com.au/?utm_source=google&utm_medium=organic&utm_campaign=google-my-business-cam&utm_term=googlemybusinesscamp,+61 1300 551 533,Bariatric surgeon,https://www.google.com/maps/search/?api=1&query=Advanced%20Surgicare&query_place_id=ChIJqxbnLPHuEmsRiLXPcqDpRqY
Dr David Joseph,4.8,34,Suite 306/100 Carillon Ave,Newtown,New South Wales,AU,https://www.drdavidjoseph.com.au/,+61 2 9565 5514,Surgeon,https://www.google.com/maps/search/?api=1&query=Dr%20David%20Joseph&query_place_id=ChIJJwF0oi2wEmsRQN4U7p-MXV0
Dr Michael Kernohan FRACS (Plast),5,106,"suite 17, Level 2/13 Digitaria Dr",Gledswood Hills,New South Wales,AU,http://drmichaelkernohan.com.au/,+61 1300 393 899,Plastic surgeon,https://www.google.com/maps/search/?api=1&query=Dr%20Michael%20Kernohan%20FRACS%20(Plast)&query_place_id=ChIJk_yklVHvEmsRFWyu4wJ1IvE
Circle of Care,4.9,29,"Suite 2, Level 1, 17/19 Solent Cct",Norwest,New South Wales,AU,http://www.circleofcare.com.au/,+61 2 8711 0134,Specialized clinic,https://www.google.com/maps/search/?api=1&query=Circle%20of%20Care&query_place_id=ChIJgwmY8IuhEmsR3-UDTv36Qdk
Dr Govind Krishna | Weight Loss & General Surgeon,4.3,45,8 Price St,Wetherill Park,New South Wales,AU,https://drgovindkrishna.com.au/,+61 2 9723 0509,Gastrointestinal surgeon,https://www.google.com/maps/search/?api=1&query=Dr%20Govind%20Krishna%20%7C%20Weight%20Loss%20%26%20General%20Surgeon&query_place_id=ChIJi0H1kYC9EmsRaq0kg1Hz0Ec
OClinic,4.7,113,198 Pacific Hwy,Crows Nest,New South Wales,AU,https://www.oclinic.sydney/,+61 2 8197 9595,Weight loss service,https://www.google.com/maps/search/?api=1&query=OClinic&query_place_id=ChIJ9VUcPemuEmsRrwx0fKMxyl4
BodyFree Weight Loss Clinic,3.9,20,"RPAH Medical Centre Suite 306, 100 Carillon Ave",Newtown,NSW,AU,https://www.bodyfree.com.au/,+61 2 9565 5505,Specialized clinic,https://www.google.com/maps/search/?api=1&query=BodyFree%20Weight%20Loss%20Clinic&query_place_id=ChIJL-NlmC2wEmsR5kyum4cf6Uw
Prime Anaesthetics,4.7,26,"Suite 9, Level 4, St George Private Hospital, 1 South St",Kogarah,NSW,AU,http://primeweb.com.au/,+61 2 9553 1566,Anesthesiologist,https://www.google.com/maps/search/?api=1&query=Prime%20Anaesthetics&query_place_id=ChIJEXvvweO5EmsRjPk0F4gIy0w
"Heartcare Sydney – Dr Reza Moazzeni, Cardiologist",5,21,Level 3 office 33/163-171 Hawkesbury Rd,Westmead,New South Wales,AU,https://heartcare.sydney/,+61 2 8401 9598,Cardiologist,https://www.google.com/maps/search/?api=1&query=Heartcare%20Sydney%20%E2%80%93%20Dr%20Reza%20Moazzeni%2C%20Cardiologist&query_place_id=ChIJJck4X--iEmsRpTDPZiYiXQ0
Dr James Chau,5,7,"St George Private Hospital, Suite 13, Level 4/1 South St",Kogarah,New South Wales,AU,http://weightlossandkeyholesurgery.com.au/,+61 2 9525 5322,Surgeon,https://www.google.com/maps/search/?api=1&query=Dr%20James%20Chau&query_place_id=ChIJvZOyGasfE2sRxhWKBqxm3uE
Professor Peter Cosman,5,2,"Southern Cross Specialists, Suite 302, Level 3/13A Montgomery St",Kogarah,New South Wales,AU,,+61 2 8005 5750,Surgeon,https://www.google.com/maps/search/?api=1&query=Professor%20Peter%20Cosman&query_place_id=ChIJdWOa5L6VEmsRkdu0DUiNSLo
Dr Pouria Moradi,4.7,119,423 Bourke St,Surry Hills,New South Wales,AU,https://drmoradi.com.au/,+61 2 8069 8974,Plastic surgeon,https://www.google.com/maps/search/?api=1&query=Dr%20Pouria%20Moradi&query_place_id=ChIJB3IOh6qYEmsR00IgpF0MHw0
"A/Prof. Oliver Fisher | Specialist Upper GI, Bariatric, & Hernia Surgeon",5,26,"St George Private Hospital, Suite 18, Level 5/1 South St",Kogarah,NSW,AU,http://www.droliverfisher.com.au/,+61 2 9157 9007,Surgeon,https://www.google.com/maps/search/?api=1&query=A%2FProf.%20Oliver%20Fisher%20%7C%20Specialist%20Upper%20GI%2C%20Bariatric%2C%20%26%20Hernia%20Surgeon&query_place_id=ChIJqVPfHou5EmsRDZ4LB78lVlQ
Pure Aesthetics,4.8,105,Level 6/149 Macquarie St,Sydney,New South Wales,AU,https://pureaesthetics.com.au/?UTM_source=GMB_pa&UTM_medium=organic,+61 2 9252 9262,Plastic surgeon,https://www.google.com/maps/search/?api=1&query=Pure%20Aesthetics&query_place_id=ChIJZ2ChJWquEmsR5hv2gmqzpHc
Dr John Ozmen | General & Upper-GI Surgeon,5,3,"Metabolic Clinic Hurstville Private Hospital, 2/37 Gloucester Rd",Hurstville,NSW,AU,https://drozmen.com.au/,+61 2 8039 4548,Gastrointestinal surgeon,https://www.google.com/maps/search/?api=1&query=Dr%20John%20Ozmen%20%7C%20General%20%26%20Upper-GI%20Surgeon&query_place_id=ChIJnYpbDDS5EmsRQ6d7L7KhOg4
Self Pay Surgery,4.9,49,48 Blanton Dr,Mulgrave,VIC,AU,http://selfpaysurgery.com.au/,+61 3 9792 6739,Private hospital,https://www.google.com/maps/search/?api=1&query=Self%20Pay%20Surgery&query_place_id=ChIJIQVR23W5EmsRe6ubn5djq5g
Southern Cross Specialists,,0,"Suite 302, Level 3/13A Montgomery St",Kogarah,New South Wales,AU,,+61 2 8005 5750,Weight loss service,https://www.google.com/maps/search/?api=1&query=Southern%20Cross%20Specialists&query_place_id=ChIJyX0RkeS5EmsRacceaWI1HpY
"Endocrine & Metabolic Clinic, Dr Ramy Bishay, Dr S Chalasani, Dr M Wang, Dr R Shanmugalingam, Dr M Sahebol-Amri",4.8,41,"The Ashley Centre, Suite 3/1A Ashley Ln",Westmead,NSW,AU,http://www.endometabolic.com.au/,+61 2 9755 9764,Endocrinologist,https://www.google.com/maps/search/?api=1&query=Endocrine%20%26%20Metabolic%20Clinic%2C%20Dr%20Ramy%20Bishay%2C%20Dr%20S%20Chalasani%2C%20Dr%20M%20Wang%2C%20Dr%20R%20Shanmugalingam%2C%20Dr%20M%20Sahebol-Amri&query_place_id=ChIJGY7ThNy7EmsRAbSex091aP0
Precision Upper GI Surgery - Dr Manjunath Siddaiah-Subramanya / Dr Manju,4.9,19,Suite 101/68 Eldridge Rd,Bankstown,New South Wales,AU,https://precisionuppergisurgery.com.au/,+61 2 9793 2170,Gastrointestinal surgeon,https://www.google.com/maps/search/?api=1&query=Precision%20Upper%20GI%20Surgery%20-%20Dr%20Manjunath%20Siddaiah-Subramanya%20%2F%20Dr%20Manju&query_place_id=ChIJVxKRlke_EmsRo4ssECWLSBw
A/Prof Carolyn Jameson,5,1,18/20 Hargrave Rd,Auburn,New South Wales,AU,,+61 2 8759 3117,Surgeon,https://www.google.com/maps/search/?api=1&query=A%2FProf%20Carolyn%20Jameson&query_place_id=ChIJn1yA9by8EmsRU1Wx5X6cuaE
Sydney Upper GI Surgery,,0,"Suite 14A, Level 5 St George Private Hospital, 1 South St",Kogarah,NSW,AU,https://www.sydneyuppergi.com.au/,+61 2 9188 4550,Gastrointestinal surgeon,https://www.google.com/maps/search/?api=1&query=Sydney%20Upper%20GI%20Surgery&query_place_id=ChIJGwBV-TW5EmsRaoDHXixMsVo
Layby Surgery,5,8,10 Bridge St,Sydney,New South Wales,AU,,+61 1300 252 929,Physician referral service,https://www.google.com/maps/search/?api=1&query=Layby%20Surgery&query_place_id=ChIJIw4l5hMlhiQRtJwfMLmbVB8
Dr Govind Krishna | Weight Loss & General Surgeon,4.3,6,level 2/37 Gloucester Rd,Hurstville,New South Wales,AU,https://drgovindkrishna.com.au/,+61 2 9723 0509,Gastrointestinal surgeon,https://www.google.com/maps/search/?api=1&query=Dr%20Govind%20Krishna%20%7C%20Weight%20Loss%20%26%20General%20Surgeon&query_place_id=ChIJ-ZUtHMa5EmsRRJmG8_Why-A
"Dr David Yeo - Specialist Upper GI, Hepatobiliary & Bariatric Surgeon",3,2,"St George Private Hospital, Level 5, Suite 19/1 South St",Kogarah,NSW,AU,http://www.drdavidyeo.com.au/,+61 2 8937 2213,Gastrointestinal surgeon,https://www.google.com/maps/search/?api=1&query=Dr%20David%20Yeo%20-%20Specialist%20Upper%20GI%2C%20Hepatobiliary%20%26%20Bariatric%20Surgeon&query_place_id=ChIJJ-Q9dH-5EmsRfZkeiXrKfWs
Dr. Khalid Ahmed,5,1,suite 4/2 Chapel St,Rockdale,New South Wales,AU,http://dr-khalidahmed.online/,+61 2 9030 4770,Weight loss service,https://www.google.com/maps/search/?api=1&query=Dr.%20Khalid%20Ahmed&query_place_id=ChIJAwMijYTHEmsRxQMOVrGBfjQ
Dr Ken Loi,4.4,14,Suite 18 Level 5/1 South St,Kogarah,New South Wales,AU,https://www.stgeorgeobesitysurgery.com.au/,+61 2 9587 8813,Gastroenterologist,https://www.google.com/maps/search/?api=1&query=Dr%20Ken%20Loi&query_place_id=ChIJEf4EBOS5EmsRhJ0_VhElfu0
Dr Georgia Rigas,,0,"Suite 19, Level 5/1 South St",Kogarah,New South Wales,AU,https://www.drgeorgiarigas.com/,+61 2 9061 6219,General practitioner,https://www.google.com/maps/search/?api=1&query=Dr%20Georgia%20Rigas&query_place_id=ChIJl8oU19u5EmsRbyQhckkSmpk
Dr Robert Gandy,5,83,"Prince of Wales Private Hospital, Suite 1A, Level/7 Barker St",Randwick,NSW,AU,http://www.keyholesurgeon.com.au/,+61 2 8599 4360,Gastrointestinal surgeon,https://www.google.com/maps/search/?api=1&query=Dr%20Robert%20Gandy&query_place_id=ChIJPf1u0RiyEmsRToAH5sYubG4
Reginald V N Lord,3.9,14,Suite 606/438 Victoria St,Darlinghurst,New South Wales,AU,http://lordsurgery.com.au/,+61 2 8382 6671,Surgeon,https://www.google.com/maps/search/?api=1&query=Reginald%20V%20N%20Lord&query_place_id=ChIJiXZmMhCuEmsRsKcoghrHZX0
Dr Jennifer Matthei,5,1,"St George Private Hospital, Suite 3 Level 5/1 South St",Kogarah,NSW,AU,https://uppergisurgery.com.au/,+61 2 9553 1120,General practitioner,https://www.google.com/maps/search/?api=1&query=Dr%20Jennifer%20Matthei&query_place_id=ChIJlzXZEJ-5EmsRKnO0L9R36NY
"Dr David Yeo - Specialist Upper GI, Hepatobiliary & Bariatric Surgeon",4.7,45,"Chris O'Brien Lifehouse, 119-143 Missenden Rd",Camperdown,NSW,AU,http://www.drdavidyeo.com.au/,+61 2 8937 2213,Surgeon,https://www.google.com/maps/search/?api=1&query=Dr%20David%20Yeo%20-%20Specialist%20Upper%20GI%2C%20Hepatobiliary%20%26%20Bariatric%20Surgeon&query_place_id=ChIJOcV7xy6wEmsRhGugyrVZSu0
Dr Clement Tsang,4.1,9,"Park House, 8th Floor/187 Macquarie St",Sydney,NSW,AU,https://www.keyholesurgerycentre.com.au/,+61 2 9221 3919,Gastrointestinal surgeon,https://www.google.com/maps/search/?api=1&query=Dr%20Clement%20Tsang&query_place_id=ChIJVdTm9WquEmsRTWpa87RLDMc
Lord Surgery - Upper GI and General Surgery,,0,438 Victoria St,Darlinghurst,New South Wales,AU,https://www.lordsurgery.com/,+61 2 8382 6671,Hospital,https://www.google.com/maps/search/?api=1&query=Lord%20Surgery%20-%20Upper%20GI%20and%20General%20Surgery&query_place_id=ChIJh92CNBCuEmsRS2wYtXCDzII
Dr Jason Maani,4.9,23,1 South St,Kogarah,New South Wales,AU,https://www.drjasonmaani.com.au/,+61 1300 849 118,Bariatric surgeon,https://www.google.com/maps/search/?api=1&query=Dr%20Jason%20Maani&query_place_id=ChIJ8RvQAOS5EmsRVcXt4aog-OA
Upper GI Surgery,4.3,10,"Suite 3, Level 5, St George Private Hospital, 1 South Street",Kogarah,NSW,AU,https://uppergisurgery.com.au/,+61 2 9553 1120,Surgeon,https://www.google.com/maps/search/?api=1&query=Upper%20GI%20Surgery&query_place_id=ChIJa6r-wuO5EmsR6Ffk885MZkI
Dr Alex Phoon - Cosmetic Plastic Surgeon,4.8,90,423 Bourke St,Surry Hills,New South Wales,AU,http://www.dralexphoon.com/,+61 2 8069 8973,Plastic surgeon,https://www.google.com/maps/search/?api=1&query=Dr%20Alex%20Phoon%20-%20Cosmetic%20Plastic%20Surgeon&query_place_id=ChIJk2Taji2wEmsRFyrfwy0KPAY
Dr Michael Crawford,5,19,314/100 Carillon Ave,Newtown,New South Wales,AU,https://drmichaelcrawford.com.au/,+61 2 9565 4854,Bariatric surgeon,https://www.google.com/maps/search/?api=1&query=Dr%20Michael%20Crawford&query_place_id=ChIJJwF0oi2wEmsRp9ufCG3d1rg
Weight Loss and Keyhole Surgery Centre,,0,2/18 Gibbs St,Miranda,New South Wales,AU,http://weightlossandkeyholesurgery.com.au/,+61 2 9525 5322,Surgeon,https://www.google.com/maps/search/?api=1&query=Weight%20Loss%20and%20Keyhole%20Surgery%20Centre&query_place_id=ChIJkQY-w5rHEmsRX11_4MqEAOg
Dr Gary Yee,,0,Suite 3 Level 5/1 South St,Kogarah,New South Wales,AU,http://www.uppergisurgery.com.au/,+61 2 9553 1120,Surgeon,https://www.google.com/maps/search/?api=1&query=Dr%20Gary%20Yee&query_place_id=ChIJUb4w9ji5EmsRJcJVq70djHU
Dr Jason Maani,,0,"Level 1, Suite 2/531-533 Kingsway",Miranda,New South Wales,AU,https://www.drjasonmaani.com.au/,+61 1300 849 118,Bariatric surgeon,https://www.google.com/maps/search/?api=1&query=Dr%20Jason%20Maani&query_place_id=ChIJSQxVLs3HEmsRJd4OplF7it4
Shire Surgery,5,1,"Suite 3, Level 1/17 Surf Rd",Cronulla,New South Wales,AU,https://shiresurgery.com.au/,+61 2 9527 0088,Surgeon,https://www.google.com/maps/search/?api=1&query=Shire%20Surgery&query_place_id=ChIJIeCckM_JEmsRQoWMZXtQefY
Dr Stuart Pincott,4.6,24,"Northern Beaches Hospital, Suite 11, Level 6/105 Frenchs Forest Rd W",Frenchs Forest,New South Wales,AU,http://www.nbcr.com.au/,+61 2 9972 9277,Surgeon,https://www.google.com/maps/search/?api=1&query=Dr%20Stuart%20Pincott&query_place_id=ChIJ9a95_IiqEmsR3s1O3YQ8rpg
Specialist Surgeons Sydney,4.8,54,Shop 1/38 Pacific Hwy,St Leonards,New South Wales,AU,http://specialistsurgeonssydney.com.au/,+61 1300 265 666,Surgeon,https://www.google.com/maps/search/?api=1&query=Specialist%20Surgeons%20Sydney&query_place_id=ChIJ507ROmquEmsRTNMO8vjve28
Shore Surgical,4.5,8,"Suite 204, Level, 2/156 Pacific Hwy",Greenwich,New South Wales,AU,http://www.shoresurgical.com.au/,+61 2 9460 8711,Surgeon,https://www.google.com/maps/search/?api=1&query=Shore%20Surgical&query_place_id=ChIJnSW-6N-uEmsR-kLahx1uHpw
Associate Professor Michael Talbot,4.7,12,"Private Hospital Suite 3, Level, 5/1 South St",Kogarah,NSW,AU,http://www.uppergisurgery.com.au/,+61 2 9553 1120,Surgeon,https://www.google.com/maps/search/?api=1&query=Associate%20Professor%20Michael%20Talbot&query_place_id=ChIJEf4EBOS5EmsRICnnrvFERBs
The BMI Clinic,3.9,13,F1/451 New South Head Rd,Double Bay,New South Wales,AU,http://bmiclinic.com.au/,+61 2 9053 4688,Specialized clinic,https://www.google.com/maps/search/?api=1&query=The%20BMI%20Clinic&query_place_id=ChIJi610lfCtEmsRNzMNBTv8BhE
Advanced Surgicare - Dr V. Kuzinkovas,5,1,"My Health Medical Centre Edensor Park Plaza Cnr Edensor &, Allambie Rd",Edensor Park,NSW,AU,https://www.advancedobesitysurgery.com.au/?utm_source=google&utm_medium=organic&utm_campaign=google-my-business-ede&utm_term=googlemybusinesseden,+61 1300 551 533,Bariatric surgeon,https://www.google.com/maps/search/?api=1&query=Advanced%20Surgicare%20-%20Dr%20V.%20Kuzinkovas&query_place_id=ChIJKZz_XuGXEmsRFubq_PSSVms
Dr John Ozmen | General & Upper-GI Surgeon,,0,"Dural Mall Round Corner Medical Centre, 4/508 Old Northern Rd",Dural,NSW,AU,https://drozmen.com.au/,+61 2 8039 4548,Gastrointestinal surgeon,https://www.google.com/maps/search/?api=1&query=Dr%20John%20Ozmen%20%7C%20General%20%26%20Upper-GI%20Surgeon&query_place_id=ChIJtevUN0dfDWsRaM_Bug3y-Do
Dr Jake Lim,4.9,20,"Suite 25, 7/9 Barwell Ave",Castle Hill,New South Wales,AU,https://drjakelim.com.au/,+61 2 9893 9388,Plastic surgeon,https://www.google.com/maps/search/?api=1&query=Dr%20Jake%20Lim&query_place_id=ChIJr8ZNcuSjEmsRykyk-VJw3aw
Mode Plastic Surgery,5,51,Suite 13/924 Pacific Hwy,Gordon,New South Wales,AU,http://www.modeplasticsurgery.com.au/,+61 1300 809 000,Plastic surgeon,https://www.google.com/maps/search/?api=1&query=Mode%20Plastic%20Surgery&query_place_id=ChIJVVWVR4eoEmsRKymakKj24Xk
Dr Philip Le Page - Surgeon,5,7,"Hospital Medical Centre, Suite 601, level 6/2a Hospital Rd",Concord,New South Wales,AU,https://drlepage.com.au/,+61 2 9126 8963,Gastrointestinal surgeon,https://www.google.com/maps/search/?api=1&query=Dr%20Philip%20Le%20Page%20-%20Surgeon&query_place_id=ChIJcyYyFj6lEmsRD1iQ36AgGxw
Dr Philip Le Page - Surgeon,5,8,"Tulloch, Inside Sydney Advetist Hospital, Suite 201/185 Fox Valley Rd",Wahroonga,NSW,AU,http://www.drlepage.com.au/,+61 2 9126 8963,Gastrointestinal surgeon,https://www.google.com/maps/search/?api=1&query=Dr%20Philip%20Le%20Page%20-%20Surgeon&query_place_id=ChIJtUXb5KunEmsRWZMDAavusuA
Dr Richardson Arthur,5,2,185 Fox Valley Rd,Wahroonga,New South Wales,AU,http://www.arthurrichardson.com.au/,+61 2 9687 0097,General practitioner,https://www.google.com/maps/search/?api=1&query=Dr%20Richardson%20Arthur&query_place_id=ChIJvUaZ46unEmsRynJv7tGqbTA
Dr Christos Apostolou Suite 16 Level 7 Northern Beaches Hospital,,0,105 Frenchs Forest Rd W,Frenchs Forest,New South Wales,AU,https://www.gastrosurgery.com.au/,+61 2 9480 4250,Bariatric surgeon,https://www.google.com/maps/search/?api=1&query=Dr%20Christos%20Apostolou%20Suite%2016%20Level%207%20Northern%20Beaches%20Hospital&query_place_id=ChIJde-yglypEmsR4GwSphfeQao
Keyhole Surgery Centre,3.6,8,Level 8/187 Macquarie St,Sydney,New South Wales,AU,http://www.keyholesurgerycentre.com.au/,+61 2 9221 3919,Surgical center,https://www.google.com/maps/search/?api=1&query=Keyhole%20Surgery%20Centre&query_place_id=ChIJVdTm9WquEmsRWru_t7R_cSg
Sydney Weight loss and Reflux Clinic,,0,Suite 213/185 Fox Valley Rd,Wahroonga,New South Wales,AU,https://www.sydwls.com.au/,+61 2 8613 5106,Surgical center,https://www.google.com/maps/search/?api=1&query=Sydney%20Weight%20loss%20and%20Reflux%20Clinic&query_place_id=ChIJ4RjpZrqnEmsRBDiTAyyycSc
Dr André Safvat - Specialist Plastic Surgeon at Ethique Plastic Surgery Miranda,4.5,22,Suite 205A/531-533 Kingsway,Miranda,New South Wales,AU,https://ethiqueplasticsurgery.com.au/,+61 2 8544 3270,Plastic surgeon,https://www.google.com/maps/search/?api=1&query=Dr%20Andr%C3%A9%20Safvat%20-%20Specialist%20Plastic%20Surgeon%20at%20Ethique%20Plastic%20Surgery%20Miranda&query_place_id=ChIJmeGWXC6lEmsRTqr_sdl3XI8
Dr Jason Maani Bariatric Surgery,5,6,267 George St,Windsor,New South Wales,AU,https://www.drjasonmaani.com.au/?gad_source=1&gclid=CjwKCAjw59q2BhBOEiwAKc0ijaNcjUaYZo-GGjhRQRfwWIgZ6psqYoR9aQAh0X347zriARwWBl-BBRoCnCUQAvD_BwE,+61 1300 849 118,Bariatric surgeon,https://www.google.com/maps/search/?api=1&query=Dr%20Jason%20Maani%20Bariatric%20Surgery&query_place_id=ChIJm3N1J_JjDWsRrX4dnJ7_7vE
Dr David Links,5,3,"Prince of Wales Private Hospital, Suite 19, Level 7 Barker St",Randwick,New South Wales,AU,http://www.drdavidlinks.com/,+61 2 8860 0841,Gastrointestinal surgeon,https://www.google.com/maps/search/?api=1&query=Dr%20David%20Links&query_place_id=ChIJg5ENau-zEmsRhVo6jfuRx4A
Keyhole Surgery Centre,,0,35 Fourth Ave,Eastwood,New South Wales,AU,http://www.keyholesurgerycentre.com.au/,+61 2 9874 9737,Medical Center,https://www.google.com/maps/search/?api=1&query=Keyhole%20Surgery%20Centre&query_place_id=ChIJ4a6RRzakEmsR3JZPHTIYYWI
"Northern Beaches Cosmetic Surgery, Sydney",4.7,131,27/14-16 Narabang Way,Belrose,New South Wales,AU,http://www.northernbeachescosmetic.com.au/?utm_source=GMB&utm_medium=GMB&utm_campaign=GMB&utm_id=GMB,+61 2 9986 2552,Plastic surgery clinic,https://www.google.com/maps/search/?api=1&query=Northern%20Beaches%20Cosmetic%20Surgery%2C%20Sydney&query_place_id=ChIJ3_jYpGpWDWsRRzaI3zOpnPw
Dr. Oliver Florica and Dr Rebecca Keeley,5,6,"SAN Clinic Parkway, Suite G12/172 Fox Valley Rd",Wahroonga,New South Wales,AU,http://www.sydneygastricbanding.com.au/,+61 2 9980 6865,Hospital,https://www.google.com/maps/search/?api=1&query=Dr.%20Oliver%20Florica%20and%20Dr%20Rebecca%20Keeley&query_place_id=ChIJ1UBgtJSnEmsRIefmTGcl9Fs
Dr Mark Boccola,5,2,"Norwest Private Hospital, 11 Norbrik Dr",Bella Vista,New South Wales,AU,,+61 2 8711 0134,Gastroenterologist,https://www.google.com/maps/search/?api=1&query=Dr%20Mark%20Boccola&query_place_id=ChIJpeSShACiEmsRleG9zjEduR0
Hills Weight Loss and Reflux Clinic,1.5,2,"The Atlas Norwest, Suite 508, Level 5, 203/8 Brookhollow Ave",Baulkham Hills,NSW,AU,https://hillsinnerhealth.com.au/,+61 456 081 547,Bariatric surgeon,https://www.google.com/maps/search/?api=1&query=Hills%20Weight%20Loss%20and%20Reflux%20Clinic&query_place_id=ChIJ8UnN4XahEmsRrk1y7ZuAWgA
My Klinik Castle Hill,4.6,21,"Barwell Centre, Suite 25/7-9 Barwell Ave",Castle Hill,New South Wales,AU,https://drjakelim.com.au/,+61 1300 050 544,Plastic surgery clinic,https://www.google.com/maps/search/?api=1&query=My%20Klinik%20Castle%20Hill&query_place_id=ChIJDeG00XShEmsRYjtUExw_Re0
Dr. Qiuye Cheng,5,28,Suite 18 Level 5/1 South St,Kogarah,New South Wales,AU,https://drqiuyecheng.com.au/,+61 2 9587 8813,Bariatric surgeon,https://www.google.com/maps/search/?api=1&query=Dr.%20Qiuye%20Cheng&query_place_id=ChIJ1a6wpae5EmsRcg-s2GS0dbY
Dr Philip Le Page - Surgeon,5,26,"Building 7, level 2, Suite 24/49 Frenchs Forest Rd E",Frenchs Forest,NSW,AU,http://www.drlepage.com.au/,+61 2 9126 8963,Surgeon,https://www.google.com/maps/search/?api=1&query=Dr%20Philip%20Le%20Page%20-%20Surgeon&query_place_id=ChIJe4UtZG2pEmsRvTHpfaaVTsU
Sydney Weight Loss & Reflux Clinic,,0,"Suite 112, Level 1/10 Norbrik Dr",Bella Vista,New South Wales,AU,https://www.sydwls.com.au/,+61 2 8613 5106,Weight loss service,https://www.google.com/maps/search/?api=1&query=Sydney%20Weight%20Loss%20%26%20Reflux%20Clinic&query_place_id=ChIJg88yykCZEmsRppMjiNNWRmc
CompleteHealth Australia,3.7,42,2/2-4 Aberdour Ave,Rouse Hill,New South Wales,AU,http://www.completehealthaustralia.com.au/,+61 2 8530 1800,Specialized clinic,https://www.google.com/maps/search/?api=1&query=CompleteHealth%20Australia&query_place_id=ChIJ-cS2tuWhEmsRsanCwLNU1CY
Dr Michael Devadas,4.6,19,"Norwest Hospital, Green Lift, Suite c202/9 Norbrik Dr",Baulkham Hills,NSW,AU,http://drmichaeldevadas.com/,+61 1300 936 875,Gastrointestinal surgeon,https://www.google.com/maps/search/?api=1&query=Dr%20Michael%20Devadas&query_place_id=ChIJ0cW2tuWhEmsR3QM1FLeRx7k
Dr Faizur Reza,5,70,306/10 Norbrik Dr,Bella Vista,New South Wales,AU,https://yhmo.xyz/business/dr-faizur-reza-b0bqgj,+61 1300 181 010,Surgeon,https://www.google.com/maps/search/?api=1&query=Dr%20Faizur%20Reza&query_place_id=ChIJedtdzhmZEmsR2j889dQuLMg
Norwest Surgical Services,5,1,9 Norbrik Dr,Bella Vista,New South Wales,AU,http://norwestsurgery.com/,+61 2 8824 3300,Surgeon,https://www.google.com/maps/search/?api=1&query=Norwest%20Surgical%20Services&query_place_id=ChIJUWQR20WjEmsRq8gtjS97kKo
Dr Rohit Kumar - Plastic Surgeon Penrith,4.2,13,"Somerset Specialist Centre, Suite 2.03, Level 2/38 Somerset St",Kingswood,New South Wales,AU,https://www.drkumar.com.au/?utm_source=google&utm_medium=organic&utm_campaign=gmb-penrith,+61 1300 267 726,Plastic surgeon,https://www.google.com/maps/search/?api=1&query=Dr%20Rohit%20Kumar%20-%20Plastic%20Surgeon%20Penrith&query_place_id=ChIJfWxBQvSFEmsRSqBCUZ3KD8Y
Breast & Body Clinic - Dr Michael Yunaev - Bella Vista,5,3,"Medical Centre, Norwest Private Hospital/9 Norbrik Dr",Bella Vista,New South Wales,AU,https://www.bbclinic.com.au/,+61 2 9819 7449,Surgeon,https://www.google.com/maps/search/?api=1&query=Breast%20%26%20Body%20Clinic%20-%20Dr%20Michael%20Yunaev%20-%20Bella%20Vista&query_place_id=ChIJ1cWu9WejEmsRkce5pc7-1JU
Dr Clare Bouffler,5,2,14/1A Barber Ave,Kingswood,New South Wales,AU,https://www.drclarebouffler.com.au/,+61 2 8824 3300,Gastrointestinal surgeon,https://www.google.com/maps/search/?api=1&query=Dr%20Clare%20Bouffler&query_place_id=ChIJC-78w-mFEmsRkPyQgSiav04
Dr Eddy Dona,4.8,291,Suite 413/29-31 Lexington Dr,Bella Vista,New South Wales,AU,http://www.drdonaplasticsurgery.com.au/,+61 1300 373 662,Plastic surgeon,https://www.google.com/maps/search/?api=1&query=Dr%20Eddy%20Dona&query_place_id=ChIJDWY8F1GfEmsRQNDQ1LqteVk
Dr Nicholas Cocco - Bella Vista,,0,"Sydney Bariatric Clinic, Lakeview Private Hospital, Suite 6 Level 1/17-19 Solent Cct",Norwest,New South Wales,AU,https://www.drnicholascocco.com/,+61 2 5849 6661,Surgeon,https://www.google.com/maps/search/?api=1&query=Dr%20Nicholas%20Cocco%20-%20Bella%20Vista&query_place_id=ChIJEWNWbsmhEmsRBkyIaLZBqx0
Dr. Chris Nahm,5,14,"Norwest GI, Q Central Building, Suite 302/10 Norbrik Dr",Bella Vista,New South Wales,AU,http://drchrisnahm.com.au/,+61 2 9899 7322,Surgeon,https://www.google.com/maps/search/?api=1&query=Dr.%20Chris%20Nahm&query_place_id=ChIJj1tSAIOZEmsRgU7IxMqRQvU
Sydney Bariatric Clinic,3,2,"Lakeview Private Hospital, 17-19 Solent Cct",Norwest,NSW,AU,http://www.sydneybariatricclinic.com/,+61 2 9687 7019,Private hospital,https://www.google.com/maps/search/?api=1&query=Sydney%20Bariatric%20Clinic&query_place_id=ChIJO3zjrdqhEmsRJTR0dleitAM
GWS Surgery | Dr Sebastian Kwon | Penrith,5,26,"Suite 317, 1/9 Barber Ave",Kingswood,New South Wales,AU,https://gwssurgery.com.au/,+61 1800 001 497,Gastrointestinal surgeon,https://www.google.com/maps/search/?api=1&query=GWS%20Surgery%20%7C%20Dr%20Sebastian%20Kwon%20%7C%20Penrith&query_place_id=ChIJt3NgEouPEmsRobeZguYRokI
Dr. Amira Sanki,5,115,Suite 7 Level 5/15 Kensington St,Kogarah,New South Wales,AU,http://www.southernaesthetic.com.au/,+61 2 9588 2494,Plastic surgeon,https://www.google.com/maps/search/?api=1&query=Dr.%20Amira%20Sanki&query_place_id=ChIJ4RU2FOS5EmsRXYpspl89mPo
Healthy Weight Australia - NSW,4.2,17,G11/2-4 Aberdour Ave,Rouse Hill,New South Wales,AU,http://healthyweightaustralia.com.au/,+61 478 088 669,Weight loss service,https://www.google.com/maps/search/?api=1&query=Healthy%20Weight%20Australia%20-%20NSW&query_place_id=ChIJAQDQLq6fEmsRnYUlI710keo
A/Prof Carolyn Jameson,5,1,318 High St,Penrith,New South Wales,AU,,,Surgeon,https://www.google.com/maps/search/?api=1&query=A%2FProf%20Carolyn%20Jameson&query_place_id=ChIJs6Z_douFEmsRYXztYbcX2ls
Obesity Clinic,,0,"Cnr Great Western Hwy &, Mamre Rd",St Marys,NSW,AU,,+61 2 9623 4027,Surgical center,https://www.google.com/maps/search/?api=1&query=Obesity%20Clinic&query_place_id=ChIJxy0KdSKbEmsRjse5-brSF94
Dr. Khalid Ahmed,,0,"20, Suite 8/24 Castlereagh St",Penrith,NSW,AU,http://dr-khalidahmed.online/,+61 2 9199 8040,Gastrointestinal surgeon,https://www.google.com/maps/search/?api=1&query=Dr.%20Khalid%20Ahmed&query_place_id=ChIJD1TwMnaFEmsRm4joBipLyvU
Pittwater Day Surgery,4.8,128,202/20 Bungan St,Mona Vale,New South Wales,AU,http://www.pittwaterdaysurgery.com.au/,+61 2 9979 3888,Surgical center,https://www.google.com/maps/search/?api=1&query=Pittwater%20Day%20Surgery&query_place_id=ChIJS3vdkJdUDWsRuGmyNeTvmjw
A/Prof Carolyn Jameson,5,6,"Suite 201, Level 2, Westmead Private Hospital",Westmead,NSW,AU,https://ghka.xyz/business/aprof-carolyn-jameson-xerk9k,,Surgeon,https://www.google.com/maps/search/?api=1&query=A%2FProf%20Carolyn%20Jameson&query_place_id=ChIJwQ8o3u2iEmsRV8pI6q3k-X8
Life,5,6,Suite 2 Level 4/171 Bigge St,Liverpool,New South Wales,AU,,,Specialized clinic,https://www.google.com/maps/search/?api=1&query=Life&query_place_id=ChIJf9DpHb-VEmsRBvdNMvJgDJM
Dr Devesh Kaushal,5,41,"Suite 6, Level 2/171 Bigge St",Liverpool,New South Wales,AU,https://drdeveshkaushal.com.au/,+61 2 7906 8312,Gastrointestinal surgeon,https://www.google.com/maps/search/?api=1&query=Dr%20Devesh%20Kaushal&query_place_id=ChIJoVVW0jqVEmsRXiCNgY5eosQ
Greencross Vets Winmalee,4.6,119,14 White Cross Rd,Winmalee,New South Wales,AU,https://www.greencrossvets.com.au/vets/winmalee/?utm_source=google&utm_medium=organic&utm_campaign=local_seo&utm_term=winmalee,+61 2 4754 4333,Veterinarian,https://www.google.com/maps/search/?api=1&query=Greencross%20Vets%20Winmalee&query_place_id=ChIJFVKh9j6HEmsRzlnSaTzE3fI
A/Prof. Christos Apostolou - Surgeon,4.9,79,"Suite 220, Level 2, Clark Tower/185 Fox Valley Rd",Wahroonga,NSW,AU,http://www.christosapostolou.com.au/,+61 2 9480 4250,Surgeon,https://www.google.com/maps/search/?api=1&query=A%2FProf.%20Christos%20Apostolou%20-%20Surgeon&query_place_id=ChIJc4Gz_q6nEmsRrW3yx_wiqzU
Dr Fadil Khaleal,5,13,123 Chetwynd Rd,Guildford,New South Wales,AU,,+61 2 9199 8040,Surgeon,https://www.google.com/maps/search/?api=1&query=Dr%20Fadil%20Khaleal&query_place_id=ChIJReL8limWEmsR2riBjKizkOk
Dr Nicholas Cocco,,0,"within Brain and Spine Centre Westmead Private Hospital Corner Darcy and, Suite 19 Mons Rd",Westmead,New South Wales,AU,https://www.drnicholascocco.com/?utm_source=google&utm_medium=wix_google_business_profile&utm_campaign=9979462947372617426,+61 2 5849 6661,Bariatric surgeon,https://www.google.com/maps/search/?api=1&query=Dr%20Nicholas%20Cocco&query_place_id=ChIJ30Rq4X6jEmsR0kndIgeDHvY
Dr Govind Krishna | Weight Loss & General Surgeon,4.3,6,40 Bigge St,Liverpool,New South Wales,AU,https://drgovindkrishna.com.au/,+61 2 9723 0509,Gastrointestinal surgeon,https://www.google.com/maps/search/?api=1&query=Dr%20Govind%20Krishna%20%7C%20Weight%20Loss%20%26%20General%20Surgeon&query_place_id=ChIJh6OjUMCVEmsRYghZtp_tKEg
Blue Mountains District ANZAC Memorial Hospital,3.6,185,1 Woodlands Rd,Katoomba,New South Wales,AU,http://www.nbmlhd.health.nsw.gov.au/blue-mountains-hospital,+61 2 4784 6500,General hospital,https://www.google.com/maps/search/?api=1&query=Blue%20Mountains%20District%20ANZAC%20Memorial%20Hospital&query_place_id=ChIJbShYVoluEmsRlXSFiEQLKRM
Dr John Ozmen | General & Upper-GI Surgeon,,0,"Sydney South West Private Hospital Suite 9, Level 4, 24-40 Bigge St",Liverpool,NSW,AU,https://drozmen.com.au/,+61 2 8039 4548,Gastrointestinal surgeon,https://www.google.com/maps/search/?api=1&query=Dr%20John%20Ozmen%20%7C%20General%20%26%20Upper-GI%20Surgeon&query_place_id=ChIJ84gpBviVEmsRco3KRUek_eg
Northern Bariatrics,,0,"Suite 16, Level 7/105 Frenchs Forest Rd W",Frenchs Forest,New South Wales,AU,https://northernbariatrics.com.au/,+61 2 9098 6996,Bariatric surgeon,https://www.google.com/maps/search/?api=1&query=Northern%20Bariatrics&query_place_id=ChIJE225xfepEmsRc2hfDFGF6VY
Life Weight Loss Centre,5,1,5 William St,Fairfield,New South Wales,AU,https://www.lifeweightloss.com.au/?utm_medium=organic&utm_source=local&utm_campaign=gmb&utm_content=website,,Weight loss service,https://www.google.com/maps/search/?api=1&query=Life%20Weight%20Loss%20Centre&query_place_id=ChIJkWaVHL-VEmsRQ55Bj38WRpI
Dr. Khalid Ahmed,5,4,Shop 3/66 Dublin St,Smithfield,New South Wales,AU,http://dr-khalidahmed.online/,+61 2 8104 1333,Weight loss service,https://www.google.com/maps/search/?api=1&query=Dr.%20Khalid%20Ahmed&query_place_id=ChIJA54XjaeXEmsR0LEnWYcYSAA
Norwest GI,5,2,10 Norbrik Dr,Bella Vista,New South Wales,AU,http://norwestgi.com.au/contact-us/latest-news/,+61 2 9899 7322,Surgeon,https://www.google.com/maps/search/?api=1&query=Norwest%20GI&query_place_id=ChIJ__8_jaqYEmsRVaj8bmBs_Dk
Dr Amitabha Das,4.4,69,304/13-15 Moore St,Liverpool,New South Wales,AU,https://www.reshapeweightloss.com.au/,+61 2 9601 4000,Gastrointestinal surgeon,https://www.google.com/maps/search/?api=1&query=Dr%20Amitabha%20Das&query_place_id=ChIJoxcI6r6VEmsRmjhuuyw8Lcs
Dr James Gallagher,5,2,Suite 314/100 Carillon Ave (level 3 RPAH Medical Centre),Newtown,NSW,AU,https://oyri.xyz/business/dr-james-gallagher-t8hx8q,+61 2 9565 5059,Surgeon,https://www.google.com/maps/search/?api=1&query=Dr%20James%20Gallagher&query_place_id=ChIJJwF0oi2wEmsROQsfp6zkOnA
Cosmos Clinic - Sydney Liposuction & BBL,4.5,304,10 Henrietta St,Double Bay,New South Wales,AU,https://www.cosmosclinic.com.au/?utm_source=google&utm_medium=organic&utm_campaign=maps,+61 1300 138 797,Doctor,https://www.google.com/maps/search/?api=1&query=Cosmos%20Clinic%20-%20Sydney%20Liposuction%20%26%20BBL&query_place_id=ChIJtRYJQeetEmsRFWuRdqEBB2M
Professor Gregory Falk - Lindfield General Surgery / Sydney Heartburn Clinic,5,20,29/12-18 Tryon Rd,Lindfield,New South Wales,AU,https://www.gregoryfalk.com.au/,+61 2 9745 1099,Gastrointestinal surgeon,https://www.google.com/maps/search/?api=1&query=Professor%20Gregory%20Falk%20-%20Lindfield%20General%20Surgery%20%2F%20Sydney%20Heartburn%20Clinic&query_place_id=ChIJm8YimemoEmsRCmujIT2HN24
Sydney Plastic Surgeon - Dr Ellis Choy,4.9,475,Suite 2B Level 2/115 Sailors Bay Rd,Northbridge,New South Wales,AU,https://drellischoy.com.au/,+61 2 8962 9388,Plastic surgeon,https://www.google.com/maps/search/?api=1&query=Sydney%20Plastic%20Surgeon%20-%20Dr%20Ellis%20Choy&query_place_id=ChIJ43PPZcquEmsReiK4bABKnqY
Macquarie GI,4.2,66,404/2 Technology Pl,Macquarie Park,New South Wales,AU,http://www.macquariegi.com/,+61 2 9812 3880,Medical clinic,https://www.google.com/maps/search/?api=1&query=Macquarie%20GI&query_place_id=ChIJhyRLXxUcCakRQ-1RdWNvgHo
Dr Jason Maani Gallbladder Surgery,5,6,"Level 3, Suite 3.02, 24/40 Bigge St",Liverpool,New South Wales,AU,https://www.drjasonmaani.com.au/gallbladder-surgery,+61 1300 849 118,Surgeon,https://www.google.com/maps/search/?api=1&query=Dr%20Jason%20Maani%20Gallbladder%20Surgery&query_place_id=ChIJc8c7fu6VEmsR_k80OcBuL0Y
Sydney Bariatric Clinic,4.6,51,,,,,,(02) 9687 7019,Bariatric surgeon,"https://www.google.com/maps/place/Sydney Bariatric Clinic/@-33.802004,150.982967,14z/data=!3m1!4b1!4m9!3m8!5m2!4m1!1i2!8m2!3d-33.802004!4d150.982967!16snull!17Bnull"
Sydney Gut Clinic,4.5,60,Suite 1 Level 4/15 Bowden St,Alexandria,New South Wales,AU,http://sydneygutclinic.com/,+61 2 9131 2111,Gastroenterologist,https://www.google.com/maps/search/?api=1&query=Sydney%20Gut%20Clinic&query_place_id=ChIJq6rGSMixEmsRLJtB96S-bQQ
Dr Sepehr Lajevardi | Specialist Plastic Surgeon,4.9,93,209/2 Pembroke St,Epping,New South Wales,AU,http://www.drlajevardi.com/,+61 2 9868 5155,Plastic surgeon,https://www.google.com/maps/search/?api=1&query=Dr%20Sepehr%20Lajevardi%20%7C%20Specialist%20Plastic%20Surgeon&query_place_id=ChIJ69GAvVSvEmsRNNA-PShb-0M
Dr Michael Yunaev,3,2,20 Roslyn St,Potts Point,New South Wales,AU,https://ghka.xyz/business/dr-michael-yunaev-aqblsg,,Surgical center,https://www.google.com/maps/search/?api=1&query=Dr%20Michael%20Yunaev&query_place_id=ChIJvdb0OhavEmsRYYD-R-xAPrg
Integrated Specialist Healthcare,3.8,18,1/531 – 533 Kingsway,Miranda,New South Wales,AU,https://ishc.org.au/,+61 2 9525 2340,Specialized clinic,https://www.google.com/maps/search/?api=1&query=Integrated%20Specialist%20Healthcare&query_place_id=ChIJaYcxDYXHEmsRGWcS7Lve2Qw
Bondi Junction Medical Practice,3.8,114,231 Oxford St,Bondi Junction,New South Wales,AU,https://qualitashealth.com.au/our-practices/bondi-junction-medical-practice/,+61 2 9389 9699,Medical Center,https://www.google.com/maps/search/?api=1&query=Bondi%20Junction%20Medical%20Practice&query_place_id=ChIJs9fqnPGtEmsRZ6pJnrpY57Y
Prof. Charbel Sandroussi - Innerwest UGIT Surgery,4.9,66,"Suite 1 Missenden Medical Centre, 54-60 Briggs St",Camperdown,NSW,AU,https://drcharbelsandroussi.com/,+61 2 9565 1375,Surgeon,https://www.google.com/maps/search/?api=1&query=Prof.%20Charbel%20Sandroussi%20-%20Innerwest%20UGIT%20Surgery&query_place_id=ChIJX7AluC6wEmsRs2bMN4xlrBA
Dr David Samra,5,34,Suite 320/5 Lime St,Barangaroo,New South Wales,AU,http://www.drdavidsamra.com.au/,+61 2 8540 8019,Sports medicine physician,https://www.google.com/maps/search/?api=1&query=Dr%20David%20Samra&query_place_id=ChIJhxdVBXWvEmsRH9Sy9XQBzuI
Longevity Exercise Physiology and Personal Training - Edgecliff,5,209,"Lower, Ground Floor, 287/289 New South Head Rd",Edgecliff,NSW,AU,http://www.longevitypt.com.au/,+61 1300 964 002,Sports medicine clinic,https://www.google.com/maps/search/?api=1&query=Longevity%20Exercise%20Physiology%20and%20Personal%20Training%20-%20Edgecliff&query_place_id=ChIJd29wI-GtEmsRYex9PDD8Ous
Sydney Spine Institute,4.4,14,Suite 107/3 Railway Parade,Burwood,New South Wales,AU,http://www.sydneyspineinstitute.com.au/,+61 2 9715 5007,Neurosurgeon,https://www.google.com/maps/search/?api=1&query=Sydney%20Spine%20Institute&query_place_id=ChIJMYez9du6EmsRrWq8U54bG3E
Dr Suhirdan Vivekanandarajah,5,13,Suite 601/438 Victoria St,Darlinghurst,New South Wales,AU,http://sydneygastroenterologist.com.au/,+61 2 8382 6622,Gastroenterologist,https://www.google.com/maps/search/?api=1&query=Dr%20Suhirdan%20Vivekanandarajah&query_place_id=ChIJG6ZBaRCuEmsR9V81Ke2TZmY
Dr Scott J Turner - Plastic Surgeon Bondi Junction,4.8,71,39 Grosvenor St,Woollahra,New South Wales,AU,http://drturner.com.au/,+61 1300 437 758,Plastic surgery clinic,https://www.google.com/maps/search/?api=1&query=Dr%20Scott%20J%20Turner%20-%20Plastic%20Surgeon%20Bondi%20Junction&query_place_id=ChIJszgkvdGtEmsR2Ypn3erAPIY
Dr Robert Drielsma,5,36,"Suite 1805, Office Tower One/520 Oxford St",Bondi Junction,New South Wales,AU,https://drdrielsma.com.au/,+61 1800 180 777,Plastic surgeon,https://www.google.com/maps/search/?api=1&query=Dr%20Robert%20Drielsma&query_place_id=ChIJH2MVdvGtEmsRGUthADQ2dmk
St Vincent's Clinic - Neurology,4.3,12,438 Victoria St,Darlinghurst,New South Wales,AU,https://www.stvincentsclinic.com.au/find-a-doctor/specialties/neurology,+61 2 8382 6222,Specialized clinic,https://www.google.com/maps/search/?api=1&query=St%20Vincent's%20Clinic%20-%20Neurology&query_place_id=ChIJdyLubhCuEmsRBDDt8tzq2m0
Dr Rohan Gett,4.5,15,438 Victoria St,Darlinghurst,New South Wales,AU,https://www.sydneycolorectalsurgery.com.au/,+61 2 8382 6675,Doctor,https://www.google.com/maps/search/?api=1&query=Dr%20Rohan%20Gett&query_place_id=ChIJv8XLfBCuEmsR4VBiGYFOccY
Breast & Body Clinic - Dr Michael Yunaev - Potts Point,5,59,20 Roslyn St,Potts Point,New South Wales,AU,https://www.bbclinic.com.au/,+61 2 9819 7449,Surgeon,https://www.google.com/maps/search/?api=1&query=Breast%20%26%20Body%20Clinic%20-%20Dr%20Michael%20Yunaev%20-%20Potts%20Point&query_place_id=ChIJocUl6gyuEmsRRlnWRZejzEw
The Skin Hospital,4.5,475,121 Crown St,Darlinghurst,New South Wales,AU,http://skinhospital.edu.au/,+61 2 8651 2000,Dermatologist,https://www.google.com/maps/search/?api=1&query=The%20Skin%20Hospital&query_place_id=ChIJq68XcWSvEmsRBlHzEfgmwMg
Peninsula Respiratory Group,4.9,277,"Building 1, level 2/49 Frenchs Forest Rd E",Frenchs Forest,New South Wales,AU,http://www.peninsularespiratory.com/,+61 2 9975 4911,Doctor,https://www.google.com/maps/search/?api=1&query=Peninsula%20Respiratory%20Group&query_place_id=ChIJkd8QJhmqEmsRLX-ahcJYUM0
Dr Saras & Co,4.3,3,318 New South Head Rd,Double Bay,New South Wales,AU,https://drsarasandco.com.au/?utm_source=google&utm_medium=organic&utm_id=gmb-double-bay,+61 2 9692 9929,Skin care clinic,https://www.google.com/maps/search/?api=1&query=Dr%20Saras%20%26%20Co&query_place_id=ChIJUZnydOetEmsRgtrofzOX9S8
Dr Sameer Mihrshahi,5,6,404/2 Technology Pl,Macquarie Park,New South Wales,AU,http://www.drsammihrshahi.com/,+61 2 9812 3880,Doctor,https://www.google.com/maps/search/?api=1&query=Dr%20Sameer%20Mihrshahi&query_place_id=ChIJpWHopRKmEmsR0dScp1WObgw
Skinnotion Laser Vein Cosmetic Surgery,4.8,33,"Ground Floor Shop, 168 Goulburn St",Surry Hills,NSW,AU,https://www.skinnotion.com.au/,+61 2 8999 3318,Surgeon,https://www.google.com/maps/search/?api=1&query=Skinnotion%20Laser%20Vein%20Cosmetic%20Surgery&query_place_id=ChIJ8XEQGHSvEmsRJapJ-NB7dug
Dr Stuart Pincott,,0,"Suite 511 The San Clinic, 185 Fox Valley Rd",Wahroonga,NSW,AU,http://www.nbcr.com.au/,+61 2 9972 9277,Proctologist,https://www.google.com/maps/search/?api=1&query=Dr%20Stuart%20Pincott&query_place_id=ChIJvUaZ46unEmsRRzua53uRczM
Northern Beaches Upper Gastrointestinal Surgery,4.2,5,"Northern Beaches Hospital, Suite 16, Level 7/105 Frenchs Forest Rd W",Frenchs Forest,NSW,AU,https://www.nbugi.com.au/,+61 2 9098 6996,Gastrointestinal surgeon,https://www.google.com/maps/search/?api=1&query=Northern%20Beaches%20Upper%20Gastrointestinal%20Surgery&query_place_id=ChIJq85GXMSrEmsR-rJ1YJXcG4U
Sydney Endocrine Specialists,3.8,47,21 Meryla St,Burwood,New South Wales,AU,http://www.sydneyendocrinespecialists.com/,+61 2 9744 8470,Endocrinologist,https://www.google.com/maps/search/?api=1&query=Sydney%20Endocrine%20Specialists&query_place_id=ChIJ_____9y6EmsRYaBQiQHmawg
Dr. Justine O’Hara at Plastic Surgery Collective,4.9,36,9/50 Victoria Rd,Drummoyne,New South Wales,AU,https://www.drjustineohara.com.au/,+61 2 8551 9800,Plastic surgeon,https://www.google.com/maps/search/?api=1&query=Dr.%20Justine%20O%E2%80%99Hara%20at%20Plastic%20Surgery%20Collective&query_place_id=ChIJ8SMKJWquEmsRy4uQquO4tT0
Géniale,4.5,211,137 Victoria Rd,Drummoyne,New South Wales,AU,https://geniale.com.au/,+61 2 9181 3999,Medical Center,https://www.google.com/maps/search/?api=1&query=G%C3%A9niale&query_place_id=ChIJmc5sDJOvEmsRcZb8W53lcXk
East Sydney Private Hospital,4.2,125,75 Crown St,Woolloomooloo,New South Wales,AU,http://www.eastsydneyprivatehospital.com/,+61 2 9001 2000,Hospital,https://www.google.com/maps/search/?api=1&query=East%20Sydney%20Private%20Hospital&query_place_id=ChIJ27QwtZ-vEmsR7KdWC4C4QQ0
Dr Michael Zacharia - Facelift Sydney,4.6,157,Level 1/424 New South Head Rd,Double Bay,New South Wales,AU,http://www.faceliftplasticsurgery.com.au/,+61 2 9192 1600,Otolaryngologist,https://www.google.com/maps/search/?api=1&query=Dr%20Michael%20Zacharia%20-%20Facelift%20Sydney&query_place_id=ChIJW3LzovCtEmsRUI2mNOhZvlE
Dr Kelly Thornbury,5,73,suite 2 level 1/15 Cross St,Double Bay,New South Wales,AU,https://www.drkellythornbury.com.au/,+61 2 7201 0777,Plastic surgeon,https://www.google.com/maps/search/?api=1&query=Dr%20Kelly%20Thornbury&query_place_id=ChIJRe9IuEi5EmsRBvQ-t_5KsHQ
Zen Medispa,4.9,82,Level 1/116 Burwood Rd,Burwood,New South Wales,AU,http://www.zenmedispa.com.au/,+61 2 9747 1669,Surgeon,https://www.google.com/maps/search/?api=1&query=Zen%20Medispa&query_place_id=ChIJbUC52tq6EmsRJMBa6dZRfVg
"Dr. Umed Cosmetics - Laser Skin Treatment, Cosmetic & Body Clinic",4.4,59,110 Great N Rd,Five Dock,New South Wales,AU,https://www.drumedcosmetics.com.au/,+61 407 194 519,Skin care clinic,https://www.google.com/maps/search/?api=1&query=Dr.%20Umed%20Cosmetics%20-%20Laser%20Skin%20Treatment%2C%20Cosmetic%20%26%20Body%20Clinic&query_place_id=ChIJMdM0qfelEmsRFGcE2hx2_E0
MyHealth1st,5,1,603/1 Newland St,Bondi Junction,New South Wales,AU,http://www.myhealth1st.com.au/,+61 1300 266 517,Health consultant,https://www.google.com/maps/search/?api=1&query=MyHealth1st&query_place_id=ChIJeS2-9oavEmsRUzlnsrXgMe4
SMS Healthcare,,0,Mezzanine/580 George St,Sydney,New South Wales,AU,https://www.smshealthcare.com.au/,+61 1300 001 767,Medical group,https://www.google.com/maps/search/?api=1&query=SMS%20Healthcare&query_place_id=ChIJRUydLFWvEmsRiHRC3i04HOU
Healthcare Professionals Group,4.5,15,14/111 Elizabeth St,Sydney,New South Wales,AU,http://www.hpgconnect.com/,,Employment agency,https://www.google.com/maps/search/?api=1&query=Healthcare%20Professionals%20Group&query_place_id=ChIJXeVBkdyvEmsR2fO9IgguogM
Dr. Michael Miroshnik,4.9,149,701/28 Spring St,Bondi Junction,New South Wales,AU,http://www.drmiroshnik.com.au/,+61 2 9389 8108,Plastic surgeon,https://www.google.com/maps/search/?api=1&query=Dr.%20Michael%20Miroshnik&query_place_id=ChIJv-56g92tEmsR7VXsSXlCXAU
A/Prof Carlo Pulitano,5,12,"Chris O’Brien Lifehouse, 119-143 Missenden Rd",Camperdown,NSW,AU,http://www.drpulitano.com.au/,+61 2 9517 2020,Surgeon,https://www.google.com/maps/search/?api=1&query=A%2FProf%20Carlo%20Pulitano&query_place_id=ChIJu72BS2qxEmsRrIuIr5sJ9Ko
Forme Institute,,0,"Westfield Tower 2 Suite 1305, Level 13/101 Grafton St",Bondi Junction,NSW,AU,https://www.formeinstitute.com/,+61 1800 849 101,Plastic surgeon,https://www.google.com/maps/search/?api=1&query=Forme%20Institute&query_place_id=ChIJcQjk_qqtEmsRc7utqQm-GJY
Dr Anthony Barker,4.9,50,,,,,https://dranthonybarker.com.au/,+61 1300 987 001,Plastic surgeon,https://www.google.com/maps/search/?api=1&query=Dr%20Anthony%20Barker&query_place_id=ChIJY4NYpSCS7Q8RjW921QSYDuw
Dr David Samra,4.9,89,121 Norton St,Leichhardt,New South Wales,AU,https://www.progressivespecialists.com.au/,+61 2 8540 8019,Sports medicine physician,https://www.google.com/maps/search/?api=1&query=Dr%20David%20Samra&query_place_id=ChIJt6amBCCxEmsR6UePEGi895s
Sydney Breast & Cosmetic Surgery,5,22,"East Sydney Private Suites, Suite 2 Level 5/75 Crown St",Woolloomooloo,New South Wales,AU,https://www.sydneybreastandcosmeticsurgery.com.au/,+61 1300 727 287,Surgeon,https://www.google.com/maps/search/?api=1&query=Sydney%20Breast%20%26%20Cosmetic%20Surgery&query_place_id=ChIJE-Z8of-vEmsRwtyh7aqDno8
Arys Health,3.4,178,Suite 12 Level 7/428 George St,Sydney,New South Wales,AU,https://www.aryshealth.com.au/,+61 2 8188 2299,Medical Center,https://www.google.com/maps/search/?api=1&query=Arys%20Health&query_place_id=ChIJfVxy2z2uEmsRBxGiCUYnTHk
Dr Fadil Khaleal,4.6,16,17/20-24 Castlereagh St,Penrith,New South Wales,AU,http://sydneymetabolicsurgery.com.au/,+61 2 9199 8040,Surgeon,https://www.google.com/maps/search/?api=1&query=Dr%20Fadil%20Khaleal&query_place_id=ChIJWeLu14qFEmsRFatTfV5QTtU
Dr Gavin Sandercoe,4.9,85,10 Norbrik Dr,Bella Vista,New South Wales,AU,http://www.drgavinsandercoe.com.au/,+61 1300 112 358,Plastic surgeon,https://www.google.com/maps/search/?api=1&query=Dr%20Gavin%20Sandercoe&query_place_id=ChIJL0Ao86qYEmsR6dPn38UHp1M
The Vein Institute Sydney - Varicose Vein Specialists,4.7,126,"of Elizabeth and, Shop 2B 227 Elizabeth Street Corner, Bathurst St",Sydney,NSW,AU,https://www.theveininstitute.com.au/varicose-vein-treatment-sydney/?utm_source=gmb&utm_medium=sydney,+61 420 102 637,Medical group,https://www.google.com/maps/search/?api=1&query=The%20Vein%20Institute%20Sydney%20-%20Varicose%20Vein%20Specialists&query_place_id=ChIJWUqfHNC6EmsRGPG-RAYHZ3c
Dr Kourosh Tavakoli,4.9,114,Suite 1 Level 1/376 New South Head Rd,Double Bay,New South Wales,AU,https://www.drtavakoli.com.au/,+61 1300 368 107,Plastic surgeon,https://www.google.com/maps/search/?api=1&query=Dr%20Kourosh%20Tavakoli&query_place_id=ChIJaUx2KOCtEmsRULZnf9QH_mo
Verve Cosmetic Clinic,4.6,22,Unit 1/202 Jersey Rd,Woollahra,New South Wales,AU,https://www.vervecosmeticclinic.com.au/?utm_source=google&utm_medium=organic&utm_campaign=gmb,+61 2 9363 2224,Surgeon,https://www.google.com/maps/search/?api=1&query=Verve%20Cosmetic%20Clinic&query_place_id=ChIJ3YrtLuOtEmsRtsinqMMOWrc
Integrated Health Institute,5,1,Level 5/75 Crown St,Woolloomooloo,New South Wales,AU,https://integratedhealthinstitute.com.au/,+61 1300 017 888,Medical Center,https://www.google.com/maps/search/?api=1&query=Integrated%20Health%20Institute&query_place_id=ChIJK9vHy5WvEmsRUmarP_rxEtA
Rapid Path to Treatment,,0,Level 5/75 Crown St,Woolloomooloo,New South Wales,AU,https://rapidpathtotreatment.com.au/,+61 1800 167 846,Hospital,https://www.google.com/maps/search/?api=1&query=Rapid%20Path%20to%20Treatment&query_place_id=ChIJwQBd99yvEmsR4N_7OYjgfpg
St Vincent's Clinic,3.3,51,438 Victoria St,Darlinghurst,New South Wales,AU,https://stvincentsclinic.com.au/,+61 2 8382 6222,Medical clinic,https://www.google.com/maps/search/?api=1&query=St%20Vincent's%20Clinic&query_place_id=ChIJbZZeexCuEmsR5Z-S7V_Xxhs
Harding Podiatry - Sydney Academy of Sport,5,105,"Sydney Academy of Sport and Recreation, Wakehurst Pkwy",Narrabeen,New South Wales,AU,https://hardingpodiatry.com.au/,+61 2 9971 1188,Podiatrist,https://www.google.com/maps/search/?api=1&query=Harding%20Podiatry%20-%20Sydney%20Academy%20of%20Sport&query_place_id=ChIJPVO-MQCrEmsRca8fBLToRFk
The Kinghorn Cancer Centre,4.9,21,370 Victoria St,Darlinghurst,New South Wales,AU,http://tkcc.org.au/contact-us/,+61 2 9355 5600,Cancer treatment center,https://www.google.com/maps/search/?api=1&query=The%20Kinghorn%20Cancer%20Centre&query_place_id=ChIJd5p20BGuEmsR1MP3UJj3_gc
title,totalScore,reviewsCount,street,city,state,countryCode,website,phone,categoryName,url
L2 Skin & Beauty Clinics｜澳洲连锁医美中心L2 Glen店,5,20,"235, Shop G/057 Springvale Rd",Glen Waverley,VIC,AU,,+61 421 799 788,Beauty salon,https://www.google.com/maps/search/?api=1&query=L2%20Skin%20%26%20Beauty%20Clinics%EF%BD%9C%E6%BE%B3%E6%B4%B2%E8%BF%9E%E9%94%81%E5%8C%BB%E7%BE%8E%E4%B8%AD%E5%BF%83L2%20Glen%E5%BA%97&query_place_id=ChIJgS-o1Ds_1moRNZyvy9RngaI
Aesthetik Profile - Dr Carmen Munteanu,5,4,246 Mitcham Rd,Mitcham,Victoria,AU,https://drcarmen.com.au/,+61 3 9852 0545,Plastic surgery clinic,https://www.google.com/maps/search/?api=1&query=Aesthetik%20Profile%20-%20Dr%20Carmen%20Munteanu&query_place_id=ChIJAQC8Kxs51moRaUyzkQgtRWk
Healthy Movers Exercise Physiology,5,49,1535 Centre Rd,Clayton,Victoria,AU,http://healthymovers.com.au/,+61 418 673 629,Health consultant,https://www.google.com/maps/search/?api=1&query=Healthy%20Movers%20Exercise%20Physiology&query_place_id=ChIJqyKnoStr1moR_PJKEqZBXy0
Evolve Performance Method,5,30,255 Colchester Rd,Kilsyth South,Victoria,AU,https://www.epmcoaching.com.au/,,Personal trainer,https://www.google.com/maps/search/?api=1&query=Evolve%20Performance%20Method&query_place_id=ChIJTcSCHS071moR2evT4rFivcc
My Body Vibes Eastland,4.7,104,"Eastland Shopping Centre, Shop 2085, Lvl, 2",Ringwood,Victoria,AU,https://www.mybodyvibes.com.au/eastland-cosmetic-clinic,+61 1300 722 911,Beauty salon,https://www.google.com/maps/search/?api=1&query=My%20Body%20Vibes%20Eastland&query_place_id=ChIJfx-ZalA71moRuq3pXA-Roys
Dr Sean Mackay,4,8,"Suite 9.5, Level 9/25 Nelson Rd",Box Hill,Victoria,AU,http://seanmackay.com.au/,+61 3 9896 5999,Surgeon,https://www.google.com/maps/search/?api=1&query=Dr%20Sean%20Mackay&query_place_id=ChIJsYTrobZA1moRWYZpNvo5-qE
Glen Iris Private,4.7,26,314 Warrigal Rd,Glen Iris,Victoria,AU,https://curagroup.com.au/hospital/glen-iris-private/,+61 3 8808 2300,Private hospital,https://www.google.com/maps/search/?api=1&query=Glen%20Iris%20Private&query_place_id=ChIJKbWbNjVA1moRZT6u3HTVrfQ
MMC Belgrave,3.7,33,1592 Burwood Hwy,Belgrave,Victoria,AU,https://mmcbelgrave.com.au/,+61 3 8288 1350,Medical Center,https://www.google.com/maps/search/?api=1&query=MMC%20Belgrave&query_place_id=ChIJRxPMoA0j1moRZ8YPHcPchl4
Conquer Allied Health,5,21,11 Wray Cres,Mount Evelyn,Victoria,AU,https://www.conqueralliedhealth.com.au/,+61 3 8203 2814,Rehabilitation center,https://www.google.com/maps/search/?api=1&query=Conquer%20Allied%20Health&query_place_id=ChIJtVVHnx8v1moRONm4gJTML6Q
Dr Carmen Munteanu - Plastic Surgeon - FRACS (Plast),4.6,41,246 Mitcham Rd,Mitcham,Victoria,AU,http://www.drcarmen.com.au/,+61 3 9852 0545,Plastic surgeon,https://www.google.com/maps/search/?api=1&query=Dr%20Carmen%20Munteanu%20-%20Plastic%20Surgeon%20-%20FRACS%20(Plast)&query_place_id=ChIJE9znKwtH1moR1Aam1gLJFs8
Sahanro Ayurvedic Wellness Centre,4.9,291,392 Blackburn Rd,Burwood East,Victoria,AU,https://www.sahanro.com.au/,+61 3 9886 6460,Naturopathic practitioner,https://www.google.com/maps/search/?api=1&query=Sahanro%20Ayurvedic%20Wellness%20Centre&query_place_id=ChIJGVTnbZ0_1moRBrEf29wlcEQ
Dr Rebecca Wyten - Specialist Plastic Surgeon,5,20,260 Mitcham Rd,Mitcham,Victoria,AU,https://drrebeccawyten.com.au/,+61 3 9018 4087,Plastic surgeon,https://www.google.com/maps/search/?api=1&query=Dr%20Rebecca%20Wyten%20-%20Specialist%20Plastic%20Surgeon&query_place_id=ChIJjzi5GYBB1moRnDdiA8NRnZs
Dr Nam Anavekar,4.9,86,26 Manningham Rd,Bulleen,Victoria,AU,http://www.namanavekar.com.au/,+61 3 9075 0005,Plastic surgeon,https://www.google.com/maps/search/?api=1&query=Dr%20Nam%20Anavekar&query_place_id=ChIJH8TJ9D9H1moRbtRP7zPSrA8
Medmate - Your Online Home For Healthcare 24/7,4.5,1490,44 Lakeview Dr,Scoresby,Victoria,AU,https://medmate.com.au/,+61 1300 858 909,Medical Center,https://www.google.com/maps/search/?api=1&query=Medmate%20-%20Your%20Online%20Home%20For%20Healthcare%2024%2F7&query_place_id=ChIJtaAP5Q5B1moRYopUN57ggUE
A/Prof. Dean White Plastic Surgery Melbourne,4.8,26,"The Avani Building, Suite 1, Level 1/12 Nelson Rd",Box Hill,Victoria,AU,https://deanwhite.com.au/,+61 3 9895 7631,Plastic surgeon,https://www.google.com/maps/search/?api=1&query=A%2FProf.%20Dean%20White%20Plastic%20Surgery%20Melbourne&query_place_id=ChIJsYTrobZA1moRAVf-AX1uqtM
Qualitas Medical Practice Rowville,3.7,864,1/1100 Wellington Rd,Rowville,Victoria,AU,https://qualitashealth.com.au/our-practices/qmprowville/,+61 3 9755 7807,Medical Center,https://www.google.com/maps/search/?api=1&query=Qualitas%20Medical%20Practice%20Rowville&query_place_id=ChIJiZKwIoo91moRTAMK9rES28Q
Monash Doctors Surgery,4.1,174,1361 Centre Rd,Clayton,Victoria,AU,https://qualitashealth.com.au/our-practices/monash-doctors-surgery/,+61 3 9562 9222,Medical Center,https://www.google.com/maps/search/?api=1&query=Monash%20Doctors%20Surgery&query_place_id=ChIJn4OBcRhr1moRP5pXhcLkjzc
Stephen Blamey,,0,301 Blackburn Rd,Mount Waverley,Victoria,AU,,+61 3 9887 8530,Surgeon,https://www.google.com/maps/search/?api=1&query=Stephen%20Blamey&query_place_id=ChIJ1bfbmfE_1moRj1eEU84RpjM
Victorian Specialist Centre,5,3,Level 1/268 Manningham Rd,Templestowe Lower,Victoria,AU,https://victorianspecialistcentre.com.au/,+61 1300 863 824,Medical Center,https://www.google.com/maps/search/?api=1&query=Victorian%20Specialist%20Centre&query_place_id=ChIJXSIhIVlH1moR4tsc5cS8fHQ
Mr Liang Low,5,14,301 Blackburn Rd,Mount Waverley,Victoria,AU,,+61 3 9887 8530,Surgeon,https://www.google.com/maps/search/?api=1&query=Mr%20Liang%20Low&query_place_id=ChIJ1bfbmfE_1moRGroHrgCR6bM
Bioscor International,4.9,182,182 Huntingdale Rd,Oakleigh East,Victoria,AU,https://bioscor.com.au/,+61 3 9544 7429,Hair replacement service,https://www.google.com/maps/search/?api=1&query=Bioscor%20International&query_place_id=ChIJhxhIOe1q1moR9_i7CMShy4Y
Mr Ahmed Naqeeb,5,4,343-357 Blackburn Rd,Mount Waverley,Victoria,AU,https://www.doctify.com/au/specialist/ahmed-naqeeb,+61 3 8845 7428,Surgeon,https://www.google.com/maps/search/?api=1&query=Mr%20Ahmed%20Naqeeb&query_place_id=ChIJA7mitg0_1moRJG77dixTBwk
Dr Jan Parker - Weight Loss Doctor,,0,370 Blackburn Rd,Glen Waverley,Victoria,AU,,+61 3 9581 2609,Weight loss service,https://www.google.com/maps/search/?api=1&query=Dr%20Jan%20Parker%20-%20Weight%20Loss%20Doctor&query_place_id=ChIJHSdIaX4_1moRPVmLJ-tldvo
Melbourne Upper GI Surgical Group,3.7,3,"Knox Private Hospital 4, 262 Mountain Hwy",Wantirna,VIC,AU,http://www.uppergi.net/,+61 3 9509 2608,Surgical center,https://www.google.com/maps/search/?api=1&query=Melbourne%20Upper%20GI%20Surgical%20Group&query_place_id=ChIJwajP6gE81moRfD533Km0beM
Mr Kiron Bhatia,,0,262 Mountain Hwy,Wantirna,Victoria,AU,,+61 3 9457 6690,Doctor,https://www.google.com/maps/search/?api=1&query=Mr%20Kiron%20Bhatia&query_place_id=ChIJfSqWlQE81moRewa-mMb-Ttc
Surrey Hills Medical Centre,4.8,640,174 Union Rd,Surrey Hills,Victoria,AU,http://www.shmc.com.au/,+61 3 9836 1366,Medical Center,https://www.google.com/maps/search/?api=1&query=Surrey%20Hills%20Medical%20Centre&query_place_id=ChIJL3O0wuBA1moRpfUHlgnLIjU
Dr Paul Burton,,0,314 Warrigal Rd,Glen Iris,Victoria,AU,,+61 3 9576 1471,Surgeon,https://www.google.com/maps/search/?api=1&query=Dr%20Paul%20Burton&query_place_id=ChIJk1meNTVA1moR6Zfuq6zL8zs
Dr Chiu Kang,,0,Suite 62 Level 6/1 Arnold St,Box Hill,Victoria,AU,https://www.obesity.com.au/dr-chiu-kang-bariatric-surgery-melbourne-vic.html,+61 3 9421 1166,Surgeon,https://www.google.com/maps/search/?api=1&query=Dr%20Chiu%20Kang&query_place_id=ChIJP76DespB1moRtrtmJCbDZCM
Eastern Health Blackburn,5,24,198 Canterbury Rd,Blackburn,Victoria,AU,https://www.easternhealth.org.au/locations/blackburn-public-surgical-centre,,Medical clinic,https://www.google.com/maps/search/?api=1&query=Eastern%20Health%20Blackburn&query_place_id=ChIJ-3aEAeQ_1moRMWHYaaCQq98
Dr. Ahmad Aly,5,6,Suite 3/195 Thompsons Rd,Bulleen,Victoria,AU,https://darebinweightlosssurgery.com.au/,+61 3 9852 3777,Surgeon,https://www.google.com/maps/search/?api=1&query=Dr.%20Ahmad%20Aly&query_place_id=ChIJAZZI9ANH1moRZy2HwWSszHk
Doctors On Centre,4.7,309,1371 Centre Rd,Clayton,Victoria,AU,https://qualitashealth.com.au/our-practices/doctors-on-centre/,+61 3 9543 5966,Medical Center,https://www.google.com/maps/search/?api=1&query=Doctors%20On%20Centre&query_place_id=ChIJke4ymyJr1moRZPskgvKafXk
Mr.Niruben Rajasagaram - Victorian Specialist Surgery & Weight Loss Centre,4.8,18,2/4 55 Kangan Dr,Berwick,Victoria,AU,https://www.nirubenrajasagaram.au/,+61 3 8548 0318,Surgeon,https://www.google.com/maps/search/?api=1&query=Mr.Niruben%20Rajasagaram%20-%20Victorian%20Specialist%20Surgery%20%26%20Weight%20Loss%20Centre&query_place_id=ChIJNecoU4Yb1moRKNr-bU2ua8w
Melbourne Centre- Dr. Andrew Huo,5,201,Suite G1/173 Lennox St,Richmond,Victoria,AU,http://www.melbourneweightloss.com.au/,+61 3 8594 1897,Bariatric surgeon,https://www.google.com/maps/search/?api=1&query=Melbourne%20Centre-%20Dr.%20Andrew%20Huo&query_place_id=ChIJ4c8miUdD1moRxWQlt5EmyDU
Melbourne Weight Loss Solutions,5,42,Suite 301 Level 3/100 Victoria Parade,East Melbourne,Victoria,AU,http://www.mwls.com.au/,+61 3 9416 4418,Bariatric surgeon,https://www.google.com/maps/search/?api=1&query=Melbourne%20Weight%20Loss%20Solutions&query_place_id=ChIJcUUbFOhC1moRw4GpscB_Jaw
Womens Weight Loss Surgery,4.3,17,"Consulting Suite D6, Level 1, Building 2/490 South Rd",Moorabbin,Victoria,AU,http://womensweightloss.com.au/,+61 3 8060 6694,Bariatric surgeon,https://www.google.com/maps/search/?api=1&query=Womens%20Weight%20Loss%20Surgery&query_place_id=ChIJ__-_80xo1moRMXUPGsbFILg
Waverley General Practice,4.8,544,370 Blackburn Rd,Glen Waverley,Victoria,AU,http://www.waverleygp.com.au/,+61 3 9802 8155,Medical Center,https://www.google.com/maps/search/?api=1&query=Waverley%20General%20Practice&query_place_id=ChIJfdRPgfo_1moRrvHkFY0HQLg
HealthMint Medical Centre Croydon,4.8,452,"Shop MMO3, 5-15 Kent Ave",Croydon,VIC,AU,https://healthmint.com.au/?utm_source=google&utm_medium=organic&utm_campaign=gmb&utm_content=croydon,+61 3 8777 0666,Medical Center,https://www.google.com/maps/search/?api=1&query=HealthMint%20Medical%20Centre%20Croydon&query_place_id=ChIJf9VAQIY71moRToAOWjE5Bew
Qualitas Medical Practice Clayton,4.7,1083,"Monash House, 271 Clayton Rd",Clayton,Victoria,AU,https://qualitasmedical.com.au/clayton,+61 3 9544 8333,Medical Center,https://www.google.com/maps/search/?api=1&query=Qualitas%20Medical%20Practice%20Clayton&query_place_id=ChIJ5dFLoyBr1moRW19mSXGAcok
BetterLife Surgery,5,19,267 Moreland Rd,Coburg,Victoria,AU,https://betterlifesurgery.com.au/?utm_source=GMBlisting&utm_medium=organic&utm_campaign=gmb,+61 1300 046 046,Bariatric surgeon,https://www.google.com/maps/search/?api=1&query=BetterLife%20Surgery&query_place_id=ChIJEzAeaI9b1moRP0lHRua17FY
Elina Medical Clinc,,0,54 Kangan Dr,Berwick,Victoria,AU,https://www.elinaweightloss.com.au/,+61 3 9581 2609,Weight loss service,https://www.google.com/maps/search/?api=1&query=Elina%20Medical%20Clinc&query_place_id=ChIJNSAifzUb1moR6TqADDmc2cw
TIM BROWN PLASTIC SURGEON,4.8,232,Suite 2/40-42 Clyde Rd,Berwick,Victoria,AU,http://www.timbrown.com.au/,+61 3 8768 5000,Plastic surgeon,https://www.google.com/maps/search/?api=1&query=TIM%20BROWN%20PLASTIC%20SURGEON&query_place_id=ChIJ5bqAKYgZ1moRkQZWbt-rd8E
Berwick Colorectal and Surgical Specialists,5,2,55 Kangan Dr,Berwick,Victoria,AU,https://bcass.com.au/contact/,+61 3 9707 0685,Doctor,https://www.google.com/maps/search/?api=1&query=Berwick%20Colorectal%20and%20Surgical%20Specialists&query_place_id=ChIJ__9P1zoa1moRVuwq3ovNZVo
Melbourne Bariatrics Peninsula,,0,Suite 7/525 McClelland Dr,Frankston,Victoria,AU,https://www.melbournebariatrics.com.au/,+61 3 9770 7189,Bariatric surgeon,https://www.google.com/maps/search/?api=1&query=Melbourne%20Bariatrics%20Peninsula&query_place_id=ChIJ92HYQqEL1moR7ALeR-4-a54
Mr.Niruben Rajasagaram | Victorian Specialist Surgery & Weight loss centre,4.7,38,"Peninsula Private Hospital Sessional Suites, Mezzanine level/525 McClelland Dr",Frankston,Victoria,AU,https://www.nirubenrajasagaram.au/,+61 3 8548 0318,Bariatric surgeon,https://www.google.com/maps/search/?api=1&query=Mr.Niruben%20Rajasagaram%20%7C%20Victorian%20Specialist%20Surgery%20%26%20Weight%20loss%20centre&query_place_id=ChIJFZ3hHS4L1moRtEnbf2OPIeQ
Obesity Surgery Melbourne,,0,Suite G1/173 Lennox St,Richmond,Victoria,AU,http://www.obesity.com.au/,+61 1800 462 373,Medical Center,https://www.google.com/maps/search/?api=1&query=Obesity%20Surgery%20Melbourne&query_place_id=ChIJA4GGzvFC1moRgqaWZbuHRsU
Victorian Bariatric Surgery Centre,5,2,93 Ferguson St,Williamstown,Victoria,AU,http://victorianbariatricsurgerycentre.com.au/,+61 3 9397 2223,Surgical center,https://www.google.com/maps/search/?api=1&query=Victorian%20Bariatric%20Surgery%20Centre&query_place_id=ChIJAQCElulm1moRj-droyaHahE
Greater Eastern Obesity Surgery,,0,75 Kangan Dr,Berwick,Victoria,AU,http://www.geobesity.com.au/,+61 413 625 420,Bariatric surgeon,https://www.google.com/maps/search/?api=1&query=Greater%20Eastern%20Obesity%20Surgery&query_place_id=ChIJufrDDyUa1moRAIVEaPvJCsc
360 Surgery,5,42,"Consulting Suites, 42 The Avenue",Windsor,Victoria,AU,http://www.360surgery.com.au/,+61 3 8548 0384,Bariatric surgeon,https://www.google.com/maps/search/?api=1&query=360%20Surgery&query_place_id=ChIJT-7z9t7DbIURicIq0tafFnY
Heidelberg,5,4,7/8 Martin St,Heidelberg,Victoria,AU,http://www.weightlosssurgerymelbourne.com.au/,+61 3 9457 6690,Surgical center,https://www.google.com/maps/search/?api=1&query=Heidelberg&query_place_id=ChIJA_U_KYZG1moR_tn-0XMhq30
Bariatrics Melbourne Dr Andrew Packiyanathan & Dr Damien Loh,5,188,"Suite 3, Level 3/517 St Kilda Rd",Melbourne,Victoria,AU,http://bariatricsmelbourne.com.au/,+61 3 9088 2155,Bariatric surgeon,https://www.google.com/maps/search/?api=1&query=Bariatrics%20Melbourne%20Dr%20Andrew%20Packiyanathan%20%26%20Dr%20Damien%20Loh&query_place_id=ChIJr6qGlulm1moRr2bOgKZjgP8
Healthy Fit,4.9,131,191 St Georges Rd,Fitzroy North,Victoria,AU,http://www.healthyfit.com.au/,+61 3 9486 2822,Gym,https://www.google.com/maps/search/?api=1&query=Healthy%20Fit&query_place_id=ChIJrdN7RxVD1moRU8fg_nIK4tk
My Body Vibes,4.7,373,218 Elgin St,Carlton,Victoria,AU,https://www.mybodyvibes.com.au/carlton-cosmetic-clinic,+61 1300 722 911,Beauty salon,https://www.google.com/maps/search/?api=1&query=My%20Body%20Vibes&query_place_id=ChIJyy-tJ7ld1moRBEnXDCI1Cm8
Deconstructing Diabetes - Simplify Eating with Diabetes,4.9,15,180 Queens Parade,Fitzroy North,Victoria,AU,https://deconstructingdiabetes.com.au/,+61 477 962 832,Nutritionist,https://www.google.com/maps/search/?api=1&query=Deconstructing%20Diabetes%20-%20Simplify%20Eating%20with%20Diabetes&query_place_id=ChIJubvpgQtc1moRDtnnVY2hfho
"Core Hypnosis - Melbourne Hypnotherapist, Anxiety, Depression, Addiction, Phobias, Alcohol Counselling",5,28,"Four Seasons Wellness Centre, Room 5/305 Johnston St",Abbotsford,Victoria,AU,https://www.corehypnosis.com.au/,+61 432 808 450,Hypnotherapy service,https://www.google.com/maps/search/?api=1&query=Core%20Hypnosis%20-%20Melbourne%20Hypnotherapist%2C%20Anxiety%2C%20Depression%2C%20Addiction%2C%20Phobias%2C%20Alcohol%20Counselling&query_place_id=ChIJxydIgQRD1moRSvsWrzAfO3A
Melbourne Gastro-Oesophageal Surgery,5,14,Suite 301/100 Victoria Parade,East Melbourne,Victoria,AU,https://www.mgos.com.au/,+61 3 9416 4418,Surgical center,https://www.google.com/maps/search/?api=1&query=Melbourne%20Gastro-Oesophageal%20Surgery&query_place_id=ChIJaVXC1cRC1moR79fFWknBuPc
A/Prof. Michael Hii,4.9,28,Suite 301/100 Victoria Parade,East Melbourne,Victoria,AU,http://www.mwls.com.au/,+61 3 9416 4418,Surgeon,https://www.google.com/maps/search/?api=1&query=A%2FProf.%20Michael%20Hii&query_place_id=ChIJ_6rD1cRC1moRbZXzqKoNazA
Surgery Support,5,6,Suite 301 Level 3/100 Victoria Parade,East Melbourne,Victoria,AU,,+61 3 9134 6807,Health consultant,https://www.google.com/maps/search/?api=1&query=Surgery%20Support&query_place_id=ChIJaU4oHldD1moR_0L9yjL9X6c
Winnett Specialist Group,4.6,30,382 Victoria Parade,East Melbourne,Victoria,AU,http://www.winnettspecialistgroup.com.au/,+61 3 9417 1555,Surgeon,https://www.google.com/maps/search/?api=1&query=Winnett%20Specialist%20Group&query_place_id=ChIJOTGflulm1moRvmb8bDwwLAU
Dr. Peter Nottle,4.9,15,42 The Avenue,Windsor,Victoria,AU,https://laparoscopicsurgery.com.au/,+61 3 9521 3615,Doctor,https://www.google.com/maps/search/?api=1&query=Dr.%20Peter%20Nottle&query_place_id=ChIJKTiUmTFo1moRiYi0QnKJ4Wo
Obesity Surgery Melbourne,,0,214 Burgundy St,Heidelberg,Victoria,AU,,+61 3 9428 7556,Doctor,https://www.google.com/maps/search/?api=1&query=Obesity%20Surgery%20Melbourne&query_place_id=ChIJlcGVhYhG1moRNVLKHtsRwA4
The Gut Guy,5,71,Unit 2715/570 Lygon St,Carlton,Victoria,AU,https://www.thegutguy.com.au/,+61 497 850 719,Health consultant,https://www.google.com/maps/search/?api=1&query=The%20Gut%20Guy&query_place_id=ChIJp6hOhV-PLowRYstGWmeTblk
Dr Nicole Winter,5,7,Suite 301/100 Victoria Parade,East Melbourne,Victoria,AU,https://mwls.com.au/our-team,+61 3 9416 4418,Surgeon,https://www.google.com/maps/search/?api=1&query=Dr%20Nicole%20Winter&query_place_id=ChIJ_88BV3JD1moRDxcx0SgnBrU
The Centre for Bariatric Surgery,,0,42 The Avenue,Windsor,Victoria,AU,,+61 3 9805 1500,Surgeon,https://www.google.com/maps/search/?api=1&query=The%20Centre%20for%20Bariatric%20Surgery&query_place_id=ChIJgUm2PzFo1moRbl5I2g7yI5M
Body Catalyst Melbourne Central,4.8,181,"Melbourne Central Shopping Centre, Ground Floor/211 La Trobe St",Melbourne,Victoria,AU,https://www.bodycatalyst.com.au/locations/melbourne-central/?utm_source=gmb&utm_medium=organic&utm_campaign=gmb-melb-central,+61 3 9988 1251,Medical spa,https://www.google.com/maps/search/?api=1&query=Body%20Catalyst%20Melbourne%20Central&query_place_id=ChIJv_nNekxd1moRBh6-1RIon_M
Daniel Foley,5,37,"Suite 7.1, Level 7 Lee Wing Epworth Richmond Hospital, 62 Erin St",Richmond,VIC,AU,https://uppergi.com.au/,+61 3 8899 7717,Surgeon,https://www.google.com/maps/search/?api=1&query=Daniel%20Foley&query_place_id=ChIJ6WDuatxD1moRecrpu_bO0DM
Reclaim Health,4.8,132,603/605 Nicholson St,Carlton North,Victoria,AU,http://www.reclaimhealth.com.au/,+61 3 9381 1991,Medical Center,https://www.google.com/maps/search/?api=1&query=Reclaim%20Health&query_place_id=ChIJJa-57ztD1moRPUMSxLkCXps
Dr Ramez Bassari,4.2,5,"Suite 6.5 Level 6 Danks Wing Epworth Richmond, 89 Bridge Rd",Richmond,VIC,AU,http://www.surgerymelbourne.com.au/,+61 3 9397 2223,Surgeon,https://www.google.com/maps/search/?api=1&query=Dr%20Ramez%20Bassari&query_place_id=ChIJRUdos6FD1moR8Itosin2opg
Mr Jacob Vanyai | MOGGS | Melbourne Oesophagogastric and General Surgery | East Melbourne,5,1,"Epworth Freemasons, Level 1/124 Grey St",East Melbourne,VIC,AU,http://moggs.com.au/,+61 3 8370 3188,Surgeon,https://www.google.com/maps/search/?api=1&query=Mr%20Jacob%20Vanyai%20%7C%20MOGGS%20%7C%20Melbourne%20Oesophagogastric%20and%20General%20Surgery%20%7C%20East%20Melbourne&query_place_id=ChIJR8ELQblD1moRAUhIgdUbVIA
Medical Specialists on Collins - Mr Anthony Clough,5,4,4/250 Collins St,Melbourne,Victoria,AU,http://www.anthonyclough.com.au/,+61 3 9958 3000,Surgeon,https://www.google.com/maps/search/?api=1&query=Medical%20Specialists%20on%20Collins%20-%20Mr%20Anthony%20Clough&query_place_id=ChIJI6LlujND1moRxJvvPE0TkqM
Melbourne Fat And Cellulite Reduction,4.9,49,108 Bourke St,Melbourne,Victoria,AU,https://www.mfacrc.com.au/,+61 414 900 540,Specialized clinic,https://www.google.com/maps/search/?api=1&query=Melbourne%20Fat%20And%20Cellulite%20Reduction&query_place_id=ChIJJQOg-shC1moR9seY-N8KaEY
Mr Hai T. Bui,5,28,248 Ascot Vale Rd,Ascot Vale,Victoria,AU,http://www.northwestsurgeons.com.au/,+61 3 9078 2184,Surgeon,https://www.google.com/maps/search/?api=1&query=Mr%20Hai%20T.%20Bui&query_place_id=ChIJfWCQwPtc1moRExR6FtB0LdI
Victorian Bariatric Surgery Centre,,0,42 The Avenue,Windsor,Victoria,AU,http://victorianbariatricsurgerycentre.com.au/,+61 3 9397 2223,Surgical center,https://www.google.com/maps/search/?api=1&query=Victorian%20Bariatric%20Surgery%20Centre&query_place_id=ChIJMQVOmDFo1moRzUmXcauBc1o
Mr Mark Cullinan,4.5,6,"Epworth Consulting Suites, Level 7 Lee Wing, 62 Erin St",Richmond,VIC,AU,http://markcullinan.com.au/,+61 1300 447 874,Surgeon,https://www.google.com/maps/search/?api=1&query=Mr%20Mark%20Cullinan&query_place_id=ChIJzSZVvSpC1moRntHNkQBh7JQ
Greater Easter Obesity Surgery,,0,26 Balaclava Rd,St Kilda East,Victoria,AU,http://www.geobesity.com.au/,+61 3 9038 1600,Surgical center,https://www.google.com/maps/search/?api=1&query=Greater%20Easter%20Obesity%20Surgery&query_place_id=ChIJkyac-kxo1moRwfNf0MzwIFw
Formulite,4.9,22,2/175 Lord St,Richmond,Victoria,AU,https://formulite.com.au/,+61 1300 002 230,Weight loss service,https://www.google.com/maps/search/?api=1&query=Formulite&query_place_id=ChIJ_SIG2hFD1moR0qqRtENouXk
Savvy Bariatrics,4,4,77 Willsmere Rd,Kew,Victoria,AU,https://www.savvybariatrics.com/,+61 412 810 078,Life coach,https://www.google.com/maps/search/?api=1&query=Savvy%20Bariatrics&query_place_id=ChIJk6SMg5dD1moRCqgwqW88IHI
Body Catalyst Doncaster,4.9,111,Shop G053/619 Doncaster Rd,Doncaster,Victoria,AU,https://www.bodycatalyst.com.au/locations/doncaster-westfield/?utm_source=gmb&utm_medium=organic&utm_term&utm_content&utm_campaign=gmb-doncaster-westfield,+61 3 8383 9472,Medical spa,https://www.google.com/maps/search/?api=1&query=Body%20Catalyst%20Doncaster&query_place_id=ChIJWfEgxmBH1moR5RGUPC5WLoY
My Body Vibes Doncaster,5,20,"Westfield Doncaster Shopping Centre, Level G/619 Doncaster Rd",Doncaster,Victoria,AU,https://www.mybodyvibes.com.au/,+61 1300 722 911,Beauty salon,https://www.google.com/maps/search/?api=1&query=My%20Body%20Vibes%20Doncaster&query_place_id=ChIJkQt18NJH1moR8JFFrAvdwBw
Greater Eastern Obesity Surgery,,0,36 Mt Dandenong Rd,Ringwood,Victoria,AU,http://www.geobesity.com.au/,+61 3 8804 4050,Surgical center,https://www.google.com/maps/search/?api=1&query=Greater%20Eastern%20Obesity%20Surgery&query_place_id=ChIJmeXUnDQ61moRWvmn8XQeo00
Surgical Weight Loss Solutions,5,4,163 Keilor Rd,Essendon,Victoria,AU,http://www.surgicalweightlosssolutions.com.au/,+61 3 9379 5479,Weight loss service,https://www.google.com/maps/search/?api=1&query=Surgical%20Weight%20Loss%20Solutions&query_place_id=ChIJubvpgQtc1moRBJOW0tPM5YE
Victorian Bariatric Surgery Centre,,0,566 Melton Hwy,Sydenham,Victoria,AU,http://victorianbariatricsurgerycentre.com.au/,+61 3 9397 2223,Surgical center,https://www.google.com/maps/search/?api=1&query=Victorian%20Bariatric%20Surgery%20Centre&query_place_id=ChIJ___Pbtz11moRKKibwaHM0pk
Mr. Ian Michell,5,3,163 Keilor Rd,Essendon,Victoria,AU,https://www.surgicalweightlosssolutions.com.au/,+61 3 9379 5479,Bariatric surgeon,https://www.google.com/maps/search/?api=1&query=Mr.%20Ian%20Michell&query_place_id=ChIJx2raz_FC1moRKeGEdUGtNoc
Victorian Bariatric Surgery Centre,,0,179 Princes Hwy,Werribee,Victoria,AU,http://victorianbariatricsurgerycentre.com.au/,+61 3 9397 2223,Surgical center,https://www.google.com/maps/search/?api=1&query=Victorian%20Bariatric%20Surgery%20Centre&query_place_id=ChIJL2ih__mF1moRcqibHsTwTUo
Epworth Laparoscopic Surgery Centre,,0,2.1/173 Lennox St,Richmond,Victoria,AU,http://laparoscopicsurgery.net.au/,+61 3 9421 1166,Surgeon,https://www.google.com/maps/search/?api=1&query=Epworth%20Laparoscopic%20Surgery%20Centre&query_place_id=ChIJA4GGzvFC1moRzj3ot2VesDA
WestVic Surgical,,0,Level 1/242 Hoppers Ln,Werribee,Victoria,AU,http://westvicsurgical.com.au/,+61 3 4331 9499,Surgical center,https://www.google.com/maps/search/?api=1&query=WestVic%20Surgical&query_place_id=ChIJKw8UiquI1moRD3IF3yO8Yck
Mr Jacob Vanyai | MOGGS | Melbourne Oesophagogastric and General Surgery | Werribee,5,1,"Werribee Golf Driving Range, 240 Hoppers Ln",Werribee,Victoria,AU,https://www.moggs.com.au/,+61 3 8370 3188,Surgeon,https://www.google.com/maps/search/?api=1&query=Mr%20Jacob%20Vanyai%20%7C%20MOGGS%20%7C%20Melbourne%20Oesophagogastric%20and%20General%20Surgery%20%7C%20Werribee&query_place_id=ChIJ-5nzbeyJ1moRsbTnp-LSSCw
Mr Douraid Abbas - Ballarat Bariatrics,,0,242 Hoppers Ln,Werribee,Victoria,AU,http://ballaratbariatrics.com.au/,+61 3 9908 2998,Local medical services,https://www.google.com/maps/search/?api=1&query=Mr%20Douraid%20Abbas%20-%20Ballarat%20Bariatrics&query_place_id=ChIJG9kpJI-J1moR9D7xSg7ctg8
Mr Geoffrey Draper,4.5,8,Suite 7/525 McClelland Dr,Frankston,Victoria,AU,https://www.geoffreydraper.com.au/,+61 3 9770 7189,Surgeon,https://www.google.com/maps/search/?api=1&query=Mr%20Geoffrey%20Draper&query_place_id=ChIJdxC1XRsL1moR6-8H1TncGLk
DESA Consulting,4.9,158,9 Fleetwood Dr,Narre Warren,Victoria,AU,https://desaconsulting.com.au/,+61 3 8725 9983,Medical Center,https://www.google.com/maps/search/?api=1&query=DESA%20Consulting&query_place_id=ChIJsw6IlVbZ1WoR47wcqXjS6Kk
Mr Zeev Duieb,,0,75 Kangan Dr,Berwick,Victoria,AU,http://www.drzeevsurgery.com/,+61 3 8784 5600,,https://www.google.com/maps/search/?api=1&query=Mr%20Zeev%20Duieb&query_place_id=ChIJPeSs_Doa1moRCZgfYU2LqJU
St John of God Berwick Hospital,4.2,261,75 Kangan Dr,Berwick,Victoria,AU,https://www.sjog.org.au/berwick,+61 3 8784 5000,General hospital,https://www.google.com/maps/search/?api=1&query=St%20John%20of%20God%20Berwick%20Hospital&query_place_id=ChIJ-V4B2zoa1moRkm2ISvIxl9I
St John of God Berwick Specialist Centre,4,16,55 Kangan Dr,Berwick,Victoria,AU,,,Medical Center,https://www.google.com/maps/search/?api=1&query=St%20John%20of%20God%20Berwick%20Specialist%20Centre&query_place_id=ChIJJ_j46K4b1moR4dzIeyRirPw
Alevia,4.9,106,20/201 Wellington Parade S,East Melbourne,Victoria,AU,https://alevia.com.au/,+61 3 9344 1322,Weight loss service,https://www.google.com/maps/search/?api=1&query=Alevia&query_place_id=ChIJ3Q0WSlJD1moRpID-1yXyyaQ
BetterLife Surgery,5,1,274 Gilbert Rd,Preston,Victoria,AU,https://betterlifesurgery.com.au/?utm_source=GMBlisting&utm_medium=organic&utm_campaign=gmb,+61 1300 046 046,Bariatric surgeon,https://www.google.com/maps/search/?api=1&query=BetterLife%20Surgery&query_place_id=ChIJ5bqPv6JF1moRyQP7GJQ1Na8
"Dr Alex Craven - Bariatric, Upper Gastrointestinal and General Surgeon",4.8,6,216 Burgundy St,Heidelberg,Victoria,AU,https://dralexcraven.com.au/,+61 3 9852 3777,Bariatric surgeon,https://www.google.com/maps/search/?api=1&query=Dr%20Alex%20Craven%20-%20Bariatric%2C%20Upper%20Gastrointestinal%20and%20General%20Surgeon&query_place_id=ChIJ94d_fT9H1moRDfaiCF3v9K4
Casey Gate Medical Centre,2.9,53,33-34 Mack Rd,Narre Warren South,Victoria,AU,http://www.caseygatemc.com.au/,+61 3 8786 5955,Public medical center,https://www.google.com/maps/search/?api=1&query=Casey%20Gate%20Medical%20Centre&query_place_id=ChIJTU9snJAQ1moRBJOOy9vAdkw
Hobson Healthcare - Werribee,4.3,38,179 Princes Hwy,Werribee,Victoria,AU,https://hobsonhealthcare.com.au/,+61 3 9731 8000,Endoscopist,https://www.google.com/maps/search/?api=1&query=Hobson%20Healthcare%20-%20Werribee&query_place_id=ChIJEeWY__mF1moRAQDyUVqQt4A
Alchemy Medicine - Araleena Isse,4.8,48,Unit 1/853 High St,Reservoir,Victoria,AU,http://www.alchemymedicine.com.au/,+61 3 9443 9330,Naturopathic practitioner,https://www.google.com/maps/search/?api=1&query=Alchemy%20Medicine%20-%20Araleena%20Isse&query_place_id=ChIJS2_ql2BE1moROXL4PcXUYf0
Melbourne Weight Loss Centre (Bayside)- Dr. Andrew Huo,,0,"Holmesglen Private Hospital Consulting Suites, 490 South Rd",Moorabbin,VIC,AU,http://www.melbourneweightloss.com.au/,+61 3 8594 1897,Surgeon,https://www.google.com/maps/search/?api=1&query=Melbourne%20Weight%20Loss%20Centre%20(Bayside)-%20Dr.%20Andrew%20Huo&query_place_id=ChIJj16MQaJt1moRJCf0kTDIspw
Dr Michael Hii,,0,"Wyndham Private Medical Centre, 242 Hoppers Ln",Werribee,VIC,AU,http://www.mgos.com.au/,+61 3 9416 4418,Surgeon,https://www.google.com/maps/search/?api=1&query=Dr%20Michael%20Hii&query_place_id=ChIJ16xO7JaJ1moRA9dJ5VCq384
Wyndham Specialist Care Centre,4.4,11,289 Princes Hwy,Werribee,Victoria,AU,,+61 3 9741 9300,Doctor,https://www.google.com/maps/search/?api=1&query=Wyndham%20Specialist%20Care%20Centre&query_place_id=ChIJq6o-uFSP1moRbGH23lWt_4Q
Dr Mani Niazi - Wantirna - MBSA,4.9,127,"Suite 9A/Knox Private Hospital, 262 Mountain Hwy",Wantirna,VIC,AU,https://www.loseweightsurgery.com.au/,+61 3 9013 0865,Surgeon,https://www.google.com/maps/search/?api=1&query=Dr%20Mani%20Niazi%20-%20Wantirna%20-%20MBSA&query_place_id=ChIJVVVVoQE81moRnEnQ7D6KkAg
Lapsurgery Australia,4.9,40,"Consulting Suites, 327 Gladstone Rd",Dandenong North,Victoria,AU,https://www.lapsurgeryaustralia.com.au/,+61 3 9760 2777,Surgeon,https://www.google.com/maps/search/?api=1&query=Lapsurgery%20Australia&query_place_id=ChIJ9XSaIH071moRwOe6VkqXI8M
Health Dash |Dr Mitra Zarrati |Accredited Practising Dietitian |Care Plan Accepted,5,62,3 Wonuka Ct,Doncaster East,Victoria,AU,https://healthdash.com.au/,+61 416 549 291,Dietitian,https://www.google.com/maps/search/?api=1&query=Health%20Dash%20%7CDr%20Mitra%20Zarrati%20%7CAccredited%20Practising%20Dietitian%20%7CCare%20Plan%20Accepted&query_place_id=ChIJJYp2f8k51moR7F-Q4w-dz10
Mr. Niruben Rajasagaram – Bariatric Surgeon for Gastric Sleeve & Weight Loss Surgery Melbourne,4.9,92,"Suite 11A Knox Private Hospital, 262 Mountain Hwy",Wantirna,VIC,AU,https://www.nirubenrajasagaram.au/,+61 3 8548 0318,Bariatric surgeon,https://www.google.com/maps/search/?api=1&query=Mr.%20Niruben%20Rajasagaram%20%E2%80%93%20Bariatric%20Surgeon%20for%20Gastric%20Sleeve%20%26%20Weight%20Loss%20Surgery%20Melbourne&query_place_id=ChIJ7Rl1x-g91moR9iuko-FdYrg
Body Genesis Institute Wheelers Hill,5,14,201/202 Jells Rd,Wheelers Hill,Victoria,AU,http://www.centreforweightloss.com.au/,+61 3 9466 7799,Bariatric surgeon,https://www.google.com/maps/search/?api=1&query=Body%20Genesis%20Institute%20Wheelers%20Hill&query_place_id=ChIJgZsrtg0V1moR3bU-oLt3-Pc
Alevia,4.8,144,374 Mountain Hwy,Wantirna,Victoria,AU,https://alevia.com.au/,+61 3 9344 1322,Weight loss service,https://www.google.com/maps/search/?api=1&query=Alevia&query_place_id=ChIJfW5-mRU_1moRibMJvSTSdCs
Elina Medical Weight Loss Clinic,4.2,38,Unit 3/370 Blackburn Rd,Glen Waverley,Victoria,AU,https://www.elinaweightloss.com.au/,+61 3 9581 2609,Weight loss service,https://www.google.com/maps/search/?api=1&query=Elina%20Medical%20Weight%20Loss%20Clinic&query_place_id=ChIJMUUqg_o_1moRLVD3nQrgscs
Epworth Centre for Bariatric Surgery,5,9,Suite 62 Level 6/1 Arnold St,Box Hill,Victoria,AU,http://www.obesity.com.au/,+61 3 9421 1166,Medical Center,https://www.google.com/maps/search/?api=1&query=Epworth%20Centre%20for%20Bariatric%20Surgery&query_place_id=ChIJA4GGzvFC1moR1TH7ikJ-o9w
Mr Anthony Clough - Melbourne Centre for Bariatic Surgery,4.9,14,1 Arnold St,Box Hill,Victoria,AU,http://www.anthonyclough.com.au/,+61 3 9958 3000,Surgeon,https://www.google.com/maps/search/?api=1&query=Mr%20Anthony%20Clough%20-%20Melbourne%20Centre%20for%20Bariatic%20Surgery&query_place_id=ChIJkeFJl7ZA1moRNoUu49qyWak
Body Genesis Institute,4.8,85,"Ormond Square, Level 2, Suite 213/12 Ormond Blvd",Bundoora,VIC,AU,https://centreforweightloss.com.au/?utm_source=google&utm_medium=GMB&utm_campaign=Map/Bundoora,+61 3 9466 7799,Weight loss service,https://www.google.com/maps/search/?api=1&query=Body%20Genesis%20Institute&query_place_id=ChIJAzuZC8hI1moRufSSRP0gRo0
"Dr Alex Craven - Bariatric, Upper Gastrointestinal and General Surgeon",5,12,195 Thompsons Rd,Bulleen,Victoria,AU,https://dralexcraven.com.au/,+61 3 9852 3777,Bariatric surgeon,https://www.google.com/maps/search/?api=1&query=Dr%20Alex%20Craven%20-%20Bariatric%2C%20Upper%20Gastrointestinal%20and%20General%20Surgeon&query_place_id=ChIJv591IPVH1moRhKX7xBbTunU
Complete Solutions,5,119,105/12 Cato St,Hawthorn East,Victoria,AU,https://completeweightlosssolutions.com.au/,+61 3 9828 1900,Surgeon,https://www.google.com/maps/search/?api=1&query=Complete%20Solutions&query_place_id=ChIJSQ1aSBlC1moRc5rJtw14nyw
North Eastern,5,19,1 Arnold St,Box Hill,Victoria,AU,https://www.melbourneobesitysurgery.com.au/,+61 3 9895 7215,Gastrointestinal surgeon,https://www.google.com/maps/search/?api=1&query=North%20Eastern&query_place_id=ChIJrRXWnu5C1moR_rfGQok6aPA
Mooroolbark Medical Centre,4.7,539,19 Manchester Rd,Mooroolbark,Victoria,AU,https://qualitashealth.com.au/our-practices/mooroolbark-medical-centre/,+61 3 8803 5700,General practitioner,https://www.google.com/maps/search/?api=1&query=Mooroolbark%20Medical%20Centre&query_place_id=ChIJMTtKQhww1moRx0Xs-oa7rEA
Melbourne Weight Loss Centre - Dr. Andrew Huo,,0,289 Princes Hwy,Werribee,Victoria,AU,http://www.melbourneweightloss.com.au/,+61 3 8594 1897,Surgeon,https://www.google.com/maps/search/?api=1&query=Melbourne%20Weight%20Loss%20Centre%20-%20Dr.%20Andrew%20Huo&query_place_id=ChIJqaUTyiOP1moRyvnK7-UgI3I
Darebin Weight Loss Surgery,4.8,38,Suite 3/195 Thompsons Rd,Bulleen,Victoria,AU,https://darebinweightlosssurgery.com.au/,+61 3 9852 3777,Surgical center,https://www.google.com/maps/search/?api=1&query=Darebin%20Weight%20Loss%20Surgery&query_place_id=ChIJAZZI9ANH1moRA9GWuzfwzdA
Upper Gastrointestinal Robotic Surgery,5,7,525 McClelland Dr Suite 16 Peninsula Private Hospital,Langwarrin,VIC,AU,https://uppergiroboticsurgery.com/,+61 3 9509 4811,Medical group,https://www.google.com/maps/search/?api=1&query=Upper%20Gastrointestinal%20Robotic%20Surgery&query_place_id=ChIJR_7dMHEL1moRGF8Ppq6bsPw
Advantage Medical - Mount Eliza,4.6,482,"Ritchies Village, Shops 14, 15 and 17/89 Mount Eliza Way",Mount Eliza,Victoria,AU,https://familydoctor.com.au/advantage-mt-eliza/,+61 3 9787 3036,Medical Center,https://www.google.com/maps/search/?api=1&query=Advantage%20Medical%20-%20Mount%20Eliza&query_place_id=ChIJJc4FMwXf1WoRidnZiSBf5Zo
Andviv Pty Ltd,,0,26 Larkspur Ave,Doncaster,Victoria,AU,https://www.andviv.com/,+61 3 9840 6677,Computer consultant,https://www.google.com/maps/search/?api=1&query=Andviv%20Pty%20Ltd&query_place_id=ChIJmcLJV2dH1moRjQ-Nyw7rLKI
Dr Mani Niazi - Langwarrin - MBSA,5,3,"525 McClelland Dr Consulting Suites, Peninsula Private Hospital",Langwarrin,VIC,AU,https://www.loseweightsurgery.com.au/,+61 3 9013 0865,Bariatric surgeon,https://www.google.com/maps/search/?api=1&query=Dr%20Mani%20Niazi%20-%20Langwarrin%20-%20MBSA&query_place_id=ChIJt7JwXQUL1moRHe4P03qnkAI
Dr Paul Burton,,0,243 New St,Brighton,Victoria,AU,http://www.surgicalconsultinggroup.com.au/,+61 3 9576 1471,Surgeon,https://www.google.com/maps/search/?api=1&query=Dr%20Paul%20Burton&query_place_id=ChIJszCeM8xo1moR6TMGXWlnrfQ
Northwestern Colorectal,5,1,248 Ascot Vale Rd,Ascot Vale,Victoria,AU,,+61 3 9078 2184,Medical clinic,https://www.google.com/maps/search/?api=1&query=Northwestern%20Colorectal&query_place_id=ChIJAQCcwPtc1moR0zQSokxrdLc
"Dr Alex Craven - Bariatric, Upper Gastrointestinal and General Surgeon",5,1,12 Osburn Pl,Epping,Victoria,AU,https://dralexcraven.com.au/,+61 3 9852 3777,Bariatric surgeon,https://www.google.com/maps/search/?api=1&query=Dr%20Alex%20Craven%20-%20Bariatric%2C%20Upper%20Gastrointestinal%20and%20General%20Surgeon&query_place_id=ChIJj5dlL6NP1moROIaG6Ijkkcw
Melbourne Weight Loss Centre- Dr. Andrew Huo,5,1,Level 2/230 Cooper St,Epping,Victoria,AU,http://www.melbourneweightloss.com.au/,+61 3 8594 1897,Surgeon,https://www.google.com/maps/search/?api=1&query=Melbourne%20Weight%20Loss%20Centre-%20Dr.%20Andrew%20Huo&query_place_id=ChIJhT9dRFxP1moRdek56kqNP4s
Hobson Bay Specialist Centre,5,1,93 Ferguson St,Williamstown,Victoria,AU,https://hobsonsbayspecialistcenter.com/,+61 3 9397 2402,Bariatric surgeon,https://www.google.com/maps/search/?api=1&query=Hobson%20Bay%20Specialist%20Centre&query_place_id=ChIJOTGflulm1moRAEm0DAthosE
Dr. Yuan Cheng,5,72,Suite 2.1/173 Lennox St,Richmond,Victoria,AU,http://www.obesity.com.au/,+61 3 9421 1166,Bariatric surgeon,https://www.google.com/maps/search/?api=1&query=Dr.%20Yuan%20Cheng&query_place_id=ChIJVVXl1cRC1moRniqUZ6Yf3qI
Advantage Medical - Tooradin,4.6,159,110 S Gippsland Hwy,Tooradin,Victoria,AU,https://familydoctor.com.au/advantage-tooradin/,+61 3 5998 3140,Medical Center,https://www.google.com/maps/search/?api=1&query=Advantage%20Medical%20-%20Tooradin&query_place_id=ChIJIT6ak78G1moRbTqR_L8_OnY
Professor Wendy Brown,4.3,6,"Suite 7, Level 1/517 St Kilda Rd",Melbourne,Victoria,AU,https://tyox.org/business/professor-wendy-brown-oi8ifv,+61 3 8652 0373,Gastrointestinal surgeon,https://www.google.com/maps/search/?api=1&query=Professor%20Wendy%20Brown&query_place_id=ChIJQUHlo2tp1moRLkL0_JR5ELE
Melbourne Weight Loss Centre- Dr. Andrew Huo,,0,Level 1/267 Moreland Rd,Coburg,Victoria,AU,http://www.melbourneweightloss.com.au/,+61 3 8594 1897,Surgeon,https://www.google.com/maps/search/?api=1&query=Melbourne%20Weight%20Loss%20Centre-%20Dr.%20Andrew%20Huo&query_place_id=ChIJO524xdRb1moR-W9y_T8Z3Ts
Pearcedale Medical Centre,4.2,25,58 Baxter-Tooradin Rd,Pearcedale,Victoria,AU,http://www.pearcedalemedical.com.au/,+61 3 5978 5533,Medical Center,https://www.google.com/maps/search/?api=1&query=Pearcedale%20Medical%20Centre&query_place_id=ChIJP2P5NvMJ1moR51JMj_6hghU
Moonee Valley Specialist Centre,4.9,617,1003 Mt Alexander Rd,Essendon,Victoria,AU,http://www.mvscentre.com.au/?utm_source=local&utm_medium=organic&utm_campaign=gmb,+61 3 9372 0372,Gastroenterologist,https://www.google.com/maps/search/?api=1&query=Moonee%20Valley%20Specialist%20Centre&query_place_id=ChIJb9hULItc1moRujKaU217JEw
Vibes Fitness,5,163,Ground floor/55 Dunnart Bvd,Whittlesea,Victoria,AU,https://www.vibesfitness.com.au/,+61 412 526 383,Personal trainer,https://www.google.com/maps/search/?api=1&query=Vibes%20Fitness&query_place_id=ChIJ0XsIcCFD1moR9eeEy6ckYXU
Body And Health Solutions,4.9,19,11 Thomas Holmes St,Maribyrnong,Victoria,AU,http://bodyandhealthsolutions.net.au/,+61 3 9317 8919,Weight loss service,https://www.google.com/maps/search/?api=1&query=Body%20And%20Health%20Solutions&query_place_id=ChIJyc0AK8Fd1moRL6Tn2QeHgWY
Northwest Surgeons,3.7,12,248 Ascot Vale Rd,Ascot Vale,Victoria,AU,http://www.northwestsurgeons.com.au/,+61 3 9078 2184,Surgical center,https://www.google.com/maps/search/?api=1&query=Northwest%20Surgeons&query_place_id=ChIJeXAIwftc1moR6ey-k2enbAY
Louise Becroft,,0,517 St Kilda Rd,Melbourne,Victoria,AU,http://louisebecroftdietitian.com.au/,+61 404 979 844,Dietitian,https://www.google.com/maps/search/?api=1&query=Louise%20Becroft&query_place_id=ChIJMQVOmDFo1moRihQZ0My8uNw
Healesville Hospital and Yarra Valley Health,4.2,46,377 Maroondah Hwy,Healesville,Victoria,AU,https://www.easternhealth.org.au/locations/healesville-hospital-and-yarra-valley-health,,Hospital,https://www.google.com/maps/search/?api=1&query=Healesville%20Hospital%20and%20Yarra%20Valley%20Health&query_place_id=ChIJ5SICYIcpKGsRcGEwBXZWBA8
Myra Beauty And Makeup,4.8,21,16 Massa Dr,Mernda,Victoria,AU,https://www.myrabeautysalon.com.au/,+61 404 679 672,Beauty salon,https://www.google.com/maps/search/?api=1&query=Myra%20Beauty%20And%20Makeup&query_place_id=ChIJ2V6DK-9L1moRDYKNRei3eVY
Body Catalyst Mornington,4.8,26,Shop 2/191 Main St,Mornington,Victoria,AU,https://www.bodycatalyst.com.au/locations/mornington/?utm_source=gmb&utm_medium=organic&utm_campaign=gmb-mornington,+61 3 5906 5703,Medical spa,https://www.google.com/maps/search/?api=1&query=Body%20Catalyst%20Mornington&query_place_id=ChIJAwzYgOrZ1WoRbErtYtreljE
Elite Medical Mornington,4.3,179,319 Main St,Mornington,Victoria,AU,https://www.elitemedicalcentre.com.au/,+61 3 5911 7014,Medical Center,https://www.google.com/maps/search/?api=1&query=Elite%20Medical%20Mornington&query_place_id=ChIJBYQPtFbZ1WoRmuwFH3aJTCE
Anne O'Neill - The Bays Hospital Consulting Suites,2.7,12,262 Main St,Mornington,Victoria,AU,http://thebays.com.au/the_bays/hospital_group/Consultants,+61 3 9010 6062,Pediatrician,https://www.google.com/maps/search/?api=1&query=Anne%20O'Neill%20-%20The%20Bays%20Hospital%20Consulting%20Suites&query_place_id=ChIJuxDCA1HZ1WoRIjQmxtdFHVU
Acupuncture & Chinese Medicine of South Morang,5,49,"Corperate Centre, 5c, Ground Floor/2 Murdoch Rd",South Morang,VIC,AU,https://www.minusplus.com.au/,+61 1800 312 919,Acupuncture clinic,https://www.google.com/maps/search/?api=1&query=Acupuncture%20%26%20Chinese%20Medicine%20of%20South%20Morang&query_place_id=ChIJtTjGTINJ1moROlpu_ZsIOW0
Tan Alwin Mr,3.9,27,Level 1 of/350 Main St,Mornington,Victoria,AU,,+61 3 5973 6609,Urologist,https://www.google.com/maps/search/?api=1&query=Tan%20Alwin%20Mr&query_place_id=ChIJx8L2MFHZ1WoRLA14GdvhAfY
The Athlete HQ,5,59,855 Plenty Rd,South Morang,Victoria,AU,https://www.theathletehq.com.au/,+61 3 7020 7451,Physical therapist,https://www.google.com/maps/search/?api=1&query=The%20Athlete%20HQ&query_place_id=ChIJa2l6ykpP1moRfjLXIwtB4AI
Mt Eliza Medical Centre,4.7,143,1303 Nepean Hwy,Mount Eliza,Victoria,AU,https://mtelizamedicalcentre.com.au/,+61 3 9783 1666,Medical Center,https://www.google.com/maps/search/?api=1&query=Mt%20Eliza%20Medical%20Centre&query_place_id=ChIJJ-JyqkLf1WoRai24ulNWt7U
Advanced Surgical/Darebin Weight loss Surgery,5,2,Suite 3/195 Thompsons Rd,Bulleen,Victoria,AU,https://advanced-surgical.com.au/,+61 3 9852 3777,Gastrointestinal surgeon,https://www.google.com/maps/search/?api=1&query=Advanced%20Surgical%2FDarebin%20Weight%20loss%20Surgery&query_place_id=ChIJ5cRI9ANH1moRz2tHvRPGRig
Rye Family Clinic,4.3,344,Shop 5/2217 Point Nepean Rd,Rye,Victoria,AU,https://ryefamilyclinic.com.au/,+61 3 5985 6662,Medical clinic,https://www.google.com/maps/search/?api=1&query=Rye%20Family%20Clinic&query_place_id=ChIJx5nCdIbK1WoRJxzWcAC_vVU
Shape & Sculpt Body Skin,5,58,2/2 Murdoch Rd,South Morang,Victoria,AU,https://www.shapeandsculptbodyskin.com.au/,+61 466 102 478,Skin care clinic,https://www.google.com/maps/search/?api=1&query=Shape%20%26%20Sculpt%20Body%20Skin&query_place_id=ChIJ1U700X5N1moRDXf75DGOcIw
Dr Ramez Bassari - Specialist Weight Loss Surgeon,,0,17 Riddell Rd,Sunbury,Victoria,AU,http://www.surgerymelbourne.com.au/,+61 3 9397 2223,Surgeon,https://www.google.com/maps/search/?api=1&query=Dr%20Ramez%20Bassari%20-%20Specialist%20Weight%20Loss%20Surgeon&query_place_id=ChIJX7HBHBf51moRiEK9L3sT0rw
Chemist Discount Centre Melton,3.5,46,383-385 High St,Melton,Victoria,AU,https://www.activepharmacy.com.au/,+61 3 9747 8444,Pharmacy,https://www.google.com/maps/search/?api=1&query=Chemist%20Discount%20Centre%20Melton&query_place_id=ChIJRUfZyT3t1moR-j17rE_RVYg
Andre Obradovic Which Path Coaching Pty Ltd,5,78,149 Pitt St,Eltham,Victoria,AU,http://andreobradovic.com/,+61 1300 610 696,Health consultant,https://www.google.com/maps/search/?api=1&query=Andre%20Obradovic%20Which%20Path%20Coaching%20Pty%20Ltd&query_place_id=ChIJGTuPH8Q31moRTXPE8oe_2oA
Mr Kiron Bhatia,,0,"Cnr Greenhills Rd and Plenty Rd, Bundoora 3083, Plenty Rd",Bundoora,VIC,AU,http://www.kironbhatia.com.au/,+61 3 9457 6690,Gastrointestinal surgeon,https://www.google.com/maps/search/?api=1&query=Mr%20Kiron%20Bhatia&query_place_id=ChIJD6UJf8ZI1moRrqillLMUltE
Elina Medical Weight Loss Clinic Bundoora,,0,9/445 Grimshaw St,Bundoora,Victoria,AU,https://www.elinaweightloss.com.au/,+61 3 9581 2609,Weight loss service,https://www.google.com/maps/search/?api=1&query=Elina%20Medical%20Weight%20Loss%20Clinic%20Bundoora&query_place_id=ChIJFRUs651J1moRMNOMXGrqEpQ
North Side Surgical Associates,5,5,109/7 Ormond Blvd,Bundoora,Victoria,AU,https://northsidesurgicalassociates.com.au/,+61 3 9965 1830,Surgical center,https://www.google.com/maps/search/?api=1&query=North%20Side%20Surgical%20Associates&query_place_id=ChIJ5SFOsJFJ1moRTi8mMeQM2No
Dr Ernest Lim,5,2,"Suite 32, 4th Floor/240 Plenty Rd",Bundoora,Victoria,AU,http://www.unihillsc.com.au/,+61 3 9466 7338,Surgeon,https://www.google.com/maps/search/?api=1&query=Dr%20Ernest%20Lim&query_place_id=ChIJKathaN5I1moRjGzzRUxKAok
Dr Ben Keong,,0,"Level 2, Suite 213/12 Ormond Blvd",Bundoora,Victoria,AU,http://drbenkeong.com.au/,+61 3 9466 7799,Surgeon,https://www.google.com/maps/search/?api=1&query=Dr%20Ben%20Keong&query_place_id=ChIJT-BEBzJJ1moRn8ev00_vWco
Dr. Paul J. Ah Tye,5,5,129 Cleeland St,Dandenong,Victoria,AU,https://cleelandspecialists.com.au/,+61 3 9793 9043,Surgeon,https://www.google.com/maps/search/?api=1&query=Dr.%20Paul%20J.%20Ah%20Tye&query_place_id=ChIJa2o-iMMV1moRzKKwotyePeY
Dr. Howard Webster,5,43,Level 2/650 Bridge Rd,Richmond,Victoria,AU,https://drwebster.com.au/,+61 3 9828 1306,Plastic surgeon,https://www.google.com/maps/search/?api=1&query=Dr.%20Howard%20Webster&query_place_id=ChIJgzvGNxlC1moRbKJoi1yFTVk
Melbourne Surgery,,0,"Northpark Private Hospital, Plenty and Greenhills Road",Melbourne,VIC,AU,,,Surgeon,https://www.google.com/maps/search/?api=1&query=Melbourne%20Surgery&query_place_id=ChIJe5-93cVI1moRwnAsolOlBXc
Berwick Integrated Care,,0,2/55 Kangan Dr,Berwick,Victoria,AU,http://berwickintegratedcare.com.au/,+61 3 9769 7227,Medical clinic,https://www.google.com/maps/search/?api=1&query=Berwick%20Integrated%20Care&query_place_id=ChIJZ8lF1zoa1moR15L29PDiExU
UniHill Specialist Centre,5,5,Suite 32/240 Plenty Rd,Bundoora,Victoria,AU,http://www.unihillsc.com.au/,+61 3 9466 7338,Medical Center,https://www.google.com/maps/search/?api=1&query=UniHill%20Specialist%20Centre&query_place_id=ChIJRx_vZ95I1moRiXq5spEetKY
Plenty Valley Medical Centre,3.2,209,Unit 7/825 Plenty Rd,South Morang,Victoria,AU,http://www.plentyvalleymedicalcentre.com.au/,+61 3 9436 9677,Medical clinic,https://www.google.com/maps/search/?api=1&query=Plenty%20Valley%20Medical%20Centre&query_place_id=ChIJ3fUIaF1J1moRinNkzfQ147o
Origin Pain Relief and Wellness,5,93,338 Main St,Mornington,Victoria,AU,https://naomigillespie.practicebetter.io/#/5c05f967627d7913842079b1/profile,+61 418 235 602,Wellness center,https://www.google.com/maps/search/?api=1&query=Origin%20Pain%20Relief%20and%20Wellness&query_place_id=ChIJBVUT-b3b1WoRkECQR-2g6YE
Modern Medical Craigieburn,3.8,411,Shop 6 1/9 Mareeba Way,Craigieburn,Victoria,AU,https://qualitashealth.com.au/our-practices/modern-medical-craigieburn/,+61 3 8339 9500,Medical Center,https://www.google.com/maps/search/?api=1&query=Modern%20Medical%20Craigieburn&query_place_id=ChIJVfKAgi1S1moRUUDT8C5kyq4
Dr Kiron Bhatia,5,3,8 Martin St,Heidelberg,Victoria,AU,http://www.kironbhatia.com.au/,+61 3 9457 6690,Doctor,https://www.google.com/maps/search/?api=1&query=Dr%20Kiron%20Bhatia&query_place_id=ChIJA_U_KYZG1moRxO-Lszm6wzI
Gym Code 1:1 Personal Coaching Studio,5,169,25 Crown St,Laverton,Victoria,AU,http://www.gymcode.com.au/,+61 406 846 814,Health consultant,https://www.google.com/maps/search/?api=1&query=Gym%20Code%201%3A1%20Personal%20Coaching%20Studio&query_place_id=ChIJY83xBMaJ1moRrxnVT5b2DXU
Point Cook Medical Centre,2.1,301,1/11 Dunnings Rd,Point Cook,Victoria,AU,https://pointcookmedicalcentre.com.au/,+61 3 9395 3400,Medical Center,https://www.google.com/maps/search/?api=1&query=Point%20Cook%20Medical%20Centre&query_place_id=ChIJPaeaoUOI1moRnWgqG9OMWWA
My Body Vibes Fountain Gate,4.8,391,"Shop 2060, Lvl 2, Westfield Fountain Gate, 25/55 Overland Dr",Narre Warren,VIC,AU,https://www.mybodyvibes.com.au/fountain-gate-cosmetic-clinic,+61 1300 722 911,Beauty salon,https://www.google.com/maps/search/?api=1&query=My%20Body%20Vibes%20Fountain%20Gate&query_place_id=ChIJKy7kdd4X1moRcAoIe9FNYE4
BODY By Andi,5,16,31 Dawson St,Coburg North,Victoria,AU,https://bodybyandi.com.au/,+61 401 432 301,Personal trainer,https://www.google.com/maps/search/?api=1&query=BODY%20By%20Andi&query_place_id=ChIJERwQ-TJb1moRPeK9ilEg0Dg
Vineyard Medical Centre,4,81,2-6 Sussex Ct,Sunbury,Victoria,AU,http://www.vineyardmedicalcentre.com.au/,+61 3 9216 5600,Medical clinic,https://www.google.com/maps/search/?api=1&query=Vineyard%20Medical%20Centre&query_place_id=ChIJ3SDGOrj51moRvCTAz7ddBMU
Eastern Health Forest Hill - Mental Health,1,2,Level2/353 Burwood Hwy,Forest Hill,Victoria,AU,https://www.easternhealth.org.au/,,Mental health service,https://www.google.com/maps/search/?api=1&query=Eastern%20Health%20Forest%20Hill%20-%20Mental%20Health&query_place_id=ChIJ8TuTO2w_1moRhQWTe7iQNy0
Dr Paul Burton,3.4,5,181/183 Wattletree Rd,Malvern,Victoria,AU,http://www.surgicalconsultinggroup.com.au/,+61 3 8573 0000,Hospital,https://www.google.com/maps/search/?api=1&query=Dr%20Paul%20Burton&query_place_id=ChIJvYcnMORp1moR5qY3inMFRN8
Vista Clinic Australia,4.7,117,"suite 415, Level 4, 530 Little Collins St the exchange tower",Melbourne,VIC,AU,https://vistaclinic.com.au/,+61 434 780 777,Medical clinic,https://www.google.com/maps/search/?api=1&query=Vista%20Clinic%20Australia&query_place_id=ChIJcSmr9rJu1moR7mO4u5Bdqjg
Capstone Medical Centre Southbank,4.5,448,216 City Rd,Southbank,Victoria,AU,https://capstonemed.com.au/,+61 3 9686 2222,Medical Center,https://www.google.com/maps/search/?api=1&query=Capstone%20Medical%20Centre%20Southbank&query_place_id=ChIJ_bogtaxC1moR3-fzoldoZRo
Dr. Ina Takkar,5,9,372 Blackburn Rd,Glen Waverley,Victoria,AU,https://www.elinaweightloss.com.au/,+61 3 9581 2609,Specialized clinic,https://www.google.com/maps/search/?api=1&query=Dr.%20Ina%20Takkar&query_place_id=ChIJC3o7g_o_1moRJ0uP2Nxkhww
VC Dermal Clinics,4.8,282,26 Clyde Rd,Berwick,Victoria,AU,https://victoriancosmetic.com.au/?utm_source=google&utm_medium=organic&utm_campaign=gmb-berwick&utm_term=gmb-berwick&utm_content=gmb-berwick,+61 3 9796 2711,Skin care clinic,https://www.google.com/maps/search/?api=1&query=VC%20Dermal%20Clinics&query_place_id=ChIJdS307IkZ1moRO6Kad7lFvCg
Specialist Surgical Group - Essendon,5,1,163 Keilor Rd,Essendon,Victoria,AU,https://specialistsurgicalgroup.com.au/,+61 3 9466 7338,Medical Center,https://www.google.com/maps/search/?api=1&query=Specialist%20Surgical%20Group%20-%20Essendon&query_place_id=ChIJBYg0qvxd1moRCWsoqdsneKg
Waverley Private Hospital,3.7,217,343-357 Blackburn Rd,Mount Waverley,Victoria,AU,http://www.waverleyprivate.com.au/,+61 3 9881 7700,Private hospital,https://www.google.com/maps/search/?api=1&query=Waverley%20Private%20Hospital&query_place_id=ChIJnSgV9fo_1moRzCSFgs9h0HU
Dr Payam Nikpoor,5,6,343/357 Blackburn Rd,Mount Waverley,Victoria,AU,http://drpayamnikpoor.com/,+61 1300 510 130,Gynecologist,https://www.google.com/maps/search/?api=1&query=Dr%20Payam%20Nikpoor&query_place_id=ChIJ25YEjv0_1moRRSqRdqqN8b8
Mr. Jacob Vanyai | MOGGS | Melbourne Oesophagogastric and General Surgery Surrey Hills,,0,174 Union Rd,Surrey Hills,Victoria,AU,https://www.moggs.com.au/,+61 3 8370 3188,Surgeon,https://www.google.com/maps/search/?api=1&query=Mr.%20Jacob%20Vanyai%20%7C%20MOGGS%20%7C%20Melbourne%20Oesophagogastric%20and%20General%20Surgery%20Surrey%20Hills&query_place_id=ChIJg_XapoFB1moR_WkT7eLhBto
Dr AA Sheriff,4,28,17 Victoria Cres,St Albans,Victoria,AU,,+61 3 9364 2963,General practitioner,https://www.google.com/maps/search/?api=1&query=Dr%20AA%20Sheriff&query_place_id=ChIJjxm7RJxf1moRI3TTy0dbR8Y
CORE Powerfoods,4.7,1096,15 Lipton Dr,Thomastown,Victoria,AU,http://www.corepowerfoods.com/,+61 1300 133 728,Food manufacturer,https://www.google.com/maps/search/?api=1&query=CORE%20Powerfoods&query_place_id=ChIJeU78bVZe1moRe7fs9NcsPqY
Peter James Centre,2.9,60,321-345 Burwood Hwy,Burwood East,Victoria,AU,http://www.easternhealth.org.au/locations/peter-james-centre,+61 1300 342 255,Rehabilitation center,https://www.google.com/maps/search/?api=1&query=Peter%20James%20Centre&query_place_id=ChIJAwjKdhI_1moRxn3F45anFDc
My Body Vibes Frankston Bayside,4.9,179,"Bayside Shopping Centre, Shop 186/28 Beach St",Frankston,Victoria,AU,https://www.mybodyvibes.com.au/frankston-cosmetic-clinic,+61 1300 722 911,Beauty salon,https://www.google.com/maps/search/?api=1&query=My%20Body%20Vibes%20Frankston%20Bayside&query_place_id=ChIJyXvoVyp11moRq0P6yltfZ_s
BFT Frankston,5,107,40-46 Mcmahons Rd,Frankston,Victoria,AU,https://www.bft.fit/frankston-googlebusiness,+61 405 194 405,Fitness center,https://www.google.com/maps/search/?api=1&query=BFT%20Frankston&query_place_id=ChIJAUqT19111moRN8LaO1vkVMA
Nezeal Medical and Aesthetic Clinic,4.9,215,325 Springvale Rd,Glen Waverley,Victoria,AU,http://www.nezealskinclinic.com.au/,+61 468 778 333,Skin care clinic,https://www.google.com/maps/search/?api=1&query=Nezeal%20Medical%20and%20Aesthetic%20Clinic&query_place_id=ChIJfVgNzYM_1moR5on4TnDhEG0
Medical Centre Frankston,4.7,518,54/56 Cranbourne Rd,Frankston,Victoria,AU,https://familydoctor.com.au/medicalcentrefrankston/,+61 3 9783 2445,Medical Center,https://www.google.com/maps/search/?api=1&query=Medical%20Centre%20Frankston&query_place_id=ChIJfVyVcdF01moRCu5WeTQzSck
Dr LP Cheah MelbourneSurgery.com,2,5,275 Moreland Rd,Coburg,Victoria,AU,http://www.melbournesurgery.com/,+61 3 9385 2285,Surgeon,https://www.google.com/maps/search/?api=1&query=Dr%20LP%20Cheah%20MelbourneSurgery.com&query_place_id=ChIJk9D8cVVb1moRfkdInYfPXTw
Qualitas Medical Practice Caroline Springs,4.1,467,Suite C3A/1042 Western Hwy,Caroline Springs,Victoria,AU,https://qualitashealth.com.au/our-practices/modern-medical-caroline-springs/,+61 3 8358 0100,Medical Center,https://www.google.com/maps/search/?api=1&query=Qualitas%20Medical%20Practice%20Caroline%20Springs&query_place_id=ChIJj73QGptMJgAROx17lS5Hxkc
Warringal Private Hospital,3.6,231,216 Burgundy St,Heidelberg,Victoria,AU,http://www.warringalprivate.com.au/,+61 3 9274 1300,Private hospital,https://www.google.com/maps/search/?api=1&query=Warringal%20Private%20Hospital&query_place_id=ChIJO-Yhh4hG1moRuk_iJrmLdgo
Valley Private Hospital,4.1,12,2/539 Police Rd,Mulgrave,Victoria,AU,,,,https://www.google.com/maps/search/?api=1&query=Valley%20Private%20Hospital&query_place_id=ChIJ__9DFSAV1moRtUowN3cGZWA
Seddon Hypnotherapy,4.9,66,30 Aughtie Dr,Albert Park,Victoria,AU,https://www.seddonhypnotherapycentre.com.au/,+61 451 948 699,Hypnotherapy service,https://www.google.com/maps/search/?api=1&query=Seddon%20Hypnotherapy&query_place_id=ChIJufV-jvZd1moRDKQ2qe1xb3s
Dr Nicole Ong,4.6,102,343 Blackburn Rd,Mount Waverley,Victoria,AU,,+61 3 7047 9339,Obstetrician-gynecologist,https://www.google.com/maps/search/?api=1&query=Dr%20Nicole%20Ong&query_place_id=ChIJpTriG9No1moRlo7aQPAKThE
MP Sports Physicians,4.5,13,1/20 Clarendon St,Frankston,Victoria,AU,http://www.mpsportsphysicians.com.au/,+61 3 9770 2398,Sports medicine clinic,https://www.google.com/maps/search/?api=1&query=MP%20Sports%20Physicians&query_place_id=ChIJm9fu7il11moRcJ0H5vFd6K4
Surgical Consulting Group,,0,44/181-183 Wattletree Rd,Malvern,Victoria,AU,http://www.surgicalconsultinggroup.com.au/,+61 3 8573 0000,Hospital,https://www.google.com/maps/search/?api=1&query=Surgical%20Consulting%20Group&query_place_id=ChIJvYcnMORp1moRUc7E2QxHQF0
Divine Body Contouring,5,11,31 Dawson St,Coburg North,Victoria,AU,http://www.divinebodycontouring.net/,+61 413 460 151,Beauty salon,https://www.google.com/maps/search/?api=1&query=Divine%20Body%20Contouring&query_place_id=ChIJ61-bVc9b1moRJ3IzAOLPQPk
Dr Chiu Kang,,0,Suite 2.1/173 Lennox St,Richmond,Victoria,AU,,+61 3 9421 1166,Surgeon,https://www.google.com/maps/search/?api=1&query=Dr%20Chiu%20Kang&query_place_id=ChIJO2keRSlD1moRMgvtTDdmf3Y
Northern Surgical Care,5,1,12 Osburn Pl,Epping,Victoria,AU,http://northernsurgicalcare.com.au/,+61 1300 052 415,Surgeon,https://www.google.com/maps/search/?api=1&query=Northern%20Surgical%20Care&query_place_id=ChIJkfz7RfpO1moRqnEDfh_iAsM
Melbourne Breast Unit,4.6,36,"Level 1, Suite 113/320 Victoria Parade",East Melbourne,Victoria,AU,http://www.breastunit.com.au/,+61 3 9419 1166,Surgical center,https://www.google.com/maps/search/?api=1&query=Melbourne%20Breast%20Unit&query_place_id=ChIJ3-hKzelC1moRJfkrTl81crA
Dr Ramez Bassari - Specialist Weight Loss Surgeon,,0,198 Pascoe Vale Rd,Moonee Ponds,Victoria,AU,http://www.surgerymelbourne.com.au/,+61 3 9397 2223,Surgeon,https://www.google.com/maps/search/?api=1&query=Dr%20Ramez%20Bassari%20-%20Specialist%20Weight%20Loss%20Surgeon&query_place_id=ChIJ22SNqMNd1moRcGn0nJV_pDM
Dr Mani Niazi - Moorabbin MBSA,,0,"490 South Rd Dr Mani Niazi Suite 1A, Holmesglen Private Hospital",Moorabbin,VIC,AU,https://www.loseweightsurgery.com.au/,+61 3 9013 0865,Bariatric surgeon,https://www.google.com/maps/search/?api=1&query=Dr%20Mani%20Niazi%20-%20Moorabbin%20MBSA&query_place_id=ChIJ2W2D6QVt1moRbdPKDBa_sdo
Mr Richard Chen,4.5,8,"Suite 44, Cabrini Hospital, 183 Wattletree Rd",Malvern,VIC,AU,https://www.drrichardchen.com.au/,+61 3 8573 0088,Gastrointestinal surgeon,https://www.google.com/maps/search/?api=1&query=Mr%20Richard%20Chen&query_place_id=ChIJGTvULeRp1moR0HlrHB_IsMo
"Laser, Skin & Wellness Clinic",3.4,12,6B Parkmore Rd,Bentleigh East,Victoria,AU,http://www.chadstone-wellness.com.au/,+61 429 828 185,Skin care clinic,https://www.google.com/maps/search/?api=1&query=Laser%2C%20Skin%20%26%20Wellness%20Clinic&query_place_id=ChIJW8KCUWhq1moRvqs8MEQUnUk
Mr Zeev Duieb,,0,Suite D1/490 South Rd,Moorabbin,Victoria,AU,http://www.drzeevsurgery.com/,+61 3 9567 9080,Doctor,https://www.google.com/maps/search/?api=1&query=Mr%20Zeev%20Duieb&query_place_id=ChIJm8A9PABt1moRHn-t9SKXtgc
Keilor Medical Clinic,3.7,562,Shop 4/8-12 Copernicus Way,Keilor Downs,Victoria,AU,https://qualitashealth.com.au/our-practices/keilor-medical-clinic/,+61 3 9366 7977,Medical Center,https://www.google.com/maps/search/?api=1&query=Keilor%20Medical%20Clinic&query_place_id=ChIJ-3WLxspY1moR1PvBIfDuZS8
Celtic Iron Personal Training Clyde,5,145,Unit 3/11 Denali Dr,Clyde North,Victoria,AU,https://celticironfitness.com.au/,+61 404 992 862,Personal trainer,https://www.google.com/maps/search/?api=1&query=Celtic%20Iron%20Personal%20Training%20Clyde&query_place_id=ChIJk9vWWOsb1moRemzOBfIF3vk
My Temple,4.7,63,Shop 1/7 Tuck St,Moorabbin,Victoria,AU,http://www.mytemple.com.au/,,Medical clinic,https://www.google.com/maps/search/?api=1&query=My%20Temple&query_place_id=ChIJ52yIA7Ju1moRFQBP-hBlfF8
Qualitas Medical Practice Bentleigh East (formerly Centre Road Medical Centre),4.4,867,868 Centre Rd,Bentleigh East,Victoria,AU,https://qualitashealth.com.au/our-practices/centre-road-medical-centre/,+61 3 9563 7766,Medical Center,https://www.google.com/maps/search/?api=1&query=Qualitas%20Medical%20Practice%20Bentleigh%20East%20(formerly%20Centre%20Road%20Medical%20Centre)&query_place_id=ChIJG-tZUr5r1moR-Rly0sXBdpY
Endocrine Specialist Centre,3.7,31,level 2 suite 9/50 Upper Heidelberg Rd,Ivanhoe,Victoria,AU,http://endocrine.net.au/,+61 3 9459 2699,Endocrinologist,https://www.google.com/maps/search/?api=1&query=Endocrine%20Specialist%20Centre&query_place_id=ChIJEztle4tG1moRBxvi7mabrX0
Verve Family Doctors,4.8,394,Suite 5/90 Mitcham Rd,Donvale,Victoria,AU,https://vervefamilydoctors.com.au/,+61 3 9842 2555,Medical Center,https://www.google.com/maps/search/?api=1&query=Verve%20Family%20Doctors&query_place_id=ChIJm1Na0f041moRNq4dMdfsoaE
Whittlesea Health & Wellness,3,6,3/79-81 Church St,Whittlesea,Victoria,AU,http://whittleseahw.com.au/,+61 3 9716 3322,Medical clinic,https://www.google.com/maps/search/?api=1&query=Whittlesea%20Health%20%26%20Wellness&query_place_id=ChIJH6hnVOC112oRt-i3IDFHHAw
Melbourne Integrative Oncology Group,4.4,20,769 South Rd,Bentleigh East,Victoria,AU,https://www.miog.com.au/,+61 3 9571 7498,Health consultant,https://www.google.com/maps/search/?api=1&query=Melbourne%20Integrative%20Oncology%20Group&query_place_id=ChIJOe5rh-Vr1moR8DEaY2-ecfE
Me Clinic | Plastic & Cosmetic Surgery Melbourne,4.3,83,4 Burke Rd,Malvern East,Victoria,AU,https://www.meclinic.com.au/,+61 3 9569 3511,Plastic surgeon,https://www.google.com/maps/search/?api=1&query=Me%20Clinic%20%7C%20Plastic%20%26%20Cosmetic%20Surgery%20Melbourne&query_place_id=ChIJex9kR_Vp1moRWHF_VH0QYLc
Precision Integrated Medical Specialists,4.2,6,260 Cotham Rd,Kew,Victoria,AU,http://www.pimshealth.com.au/,+61 3 8862 0000,Medical group,https://www.google.com/maps/search/?api=1&query=Precision%20Integrated%20Medical%20Specialists&query_place_id=ChIJI2D54zJD1moRt2IwX0lLrGc
Livac,,0,17 Lynch St,Hawthorn,Victoria,AU,http://www.livac.com.au/,,Medical technology manufacturer,https://www.google.com/maps/search/?api=1&query=Livac&query_place_id=ChIJzynVa3xC1moR2MEyWMUnWog
Dr Amir Faham,5,68,21-23 Chadstone Rd,Malvern East,Victoria,AU,http://dramirfaham.com.au/,+61 3 9569 0688,General practitioner,https://www.google.com/maps/search/?api=1&query=Dr%20Amir%20Faham&query_place_id=ChIJZdGft9WJ1moRhTh3Umdw_lI
Northend Medical,4,804,48-50 Childs Rd,Epping,Victoria,AU,http://www.northendmedical.com.au/,+61 3 9408 8800,Medical Center,https://www.google.com/maps/search/?api=1&query=Northend%20Medical&query_place_id=ChIJpQdb7N1O1moRv7CRV-B0930
Total Nutrition Care,4.5,30,Suite 22/488 Neerim Rd,Murrumbeena,Victoria,AU,http://www.profkourisnutrition.com.au/,+61 3 9483 7013,Nutritionist,https://www.google.com/maps/search/?api=1&query=Total%20Nutrition%20Care&query_place_id=ChIJSfQt1z5q1moRyFDWofsCxe8
Colonic Care Melbourne,5,280,1/9 Coolac St,Cheltenham,Victoria,AU,http://www.coloniccare.com.au/,+61 458 810 229,Medical Center,https://www.google.com/maps/search/?api=1&query=Colonic%20Care%20Melbourne&query_place_id=ChIJy_HdOfJr1moRetJBM8FQ0Wg
The Alfred -Endocrinology,5,1,55 Commercial Rd,Melbourne,Victoria,AU,https://www.alfredhealth.org.au/services/endocrinology-diabetes,+61 3 9076 2025,Hospital department,https://www.google.com/maps/search/?api=1&query=The%20Alfred%20-Endocrinology&query_place_id=ChIJ9x02Pxho1moRzzYzzJdvEGs
Angliss Hospital,3.7,458,39 Albert St,Upper Ferntree Gully,Victoria,AU,http://www.easternhealth.org.au/locations/angliss-hospital/item/215-angliss-hospital,+61 1300 342 255,General hospital,https://www.google.com/maps/search/?api=1&query=Angliss%20Hospital&query_place_id=ChIJoagOrcw81moRx2rvA1Ddb-0
Baker Heart and Diabetes Institute,2.9,35,"Alfred Centre, Level 4/99 Commercial Rd",Melbourne,Victoria,AU,https://baker.edu.au/,+61 3 8532 1800,Research institute,https://www.google.com/maps/search/?api=1&query=Baker%20Heart%20and%20Diabetes%20Institute&query_place_id=ChIJXws9iSNo1moRLvrviHB0y_Y
The Greville Clinic South Yarra,4.9,507,Shop 1/238 Toorak Rd,South Yarra,Victoria,AU,https://thegrevilleclinic.com.au/,+61 3 9824 2634,Skin care clinic,https://www.google.com/maps/search/?api=1&query=The%20Greville%20Clinic%20South%20Yarra&query_place_id=ChIJ3f6iFyVo1moROe_4BGbHe6g
The BMI Clinic,1.8,4,"Suite 2, Level 1/517 St Kilda Rd",Melbourne,Victoria,AU,http://bmiclinic.com.au/,+61 1300 859 059,Specialized clinic,https://www.google.com/maps/search/?api=1&query=The%20BMI%20Clinic&query_place_id=ChIJT7X79kRp1moRp4pEah_5kWQ
The Wellness Clinics,5,27,127 Toorak Rd,South Yarra,Victoria,AU,https://www.thewellnessclinics.com.au/,+61 3 9034 6493,Medical Center,https://www.google.com/maps/search/?api=1&query=The%20Wellness%20Clinics&query_place_id=ChIJhfoQyMhD1moR8g9-oNP0k14
ENRICH Dermatology & Cosmetic Clinic,3.9,78,8/10 Howitt St,South Yarra,Victoria,AU,http://www.enrichclinic.com.au/,+61 3 9500 9500,Dermatologist,https://www.google.com/maps/search/?api=1&query=ENRICH%20Dermatology%20%26%20Cosmetic%20Clinic&query_place_id=ChIJi1MnDdpp1moRBGDonCaJHig
John Fawkner Private Hospital,3.4,248,275 Moreland Rd,Coburg,Victoria,AU,https://johnfawknerprivatehospital.com.au/,+61 3 9385 2500,Private hospital,https://www.google.com/maps/search/?api=1&query=John%20Fawkner%20Private%20Hospital&query_place_id=ChIJxc3mdlVb1moRBfGR-bNT8Io
The Alfred,3.8,841,55 Commercial Rd,Melbourne,Victoria,AU,http://www.alfredhealth.org.au/the-alfred,+61 3 9076 2000,General hospital,https://www.google.com/maps/search/?api=1&query=The%20Alfred&query_place_id=ChIJYeYFDRho1moRUF8wBXZWBA8
Dr. Andrew Greensmith,4.9,224,253 Wattletree Rd,Malvern,Victoria,AU,,+61 3 9508 9508,Plastic surgeon,https://www.google.com/maps/search/?api=1&query=Dr.%20Andrew%20Greensmith&query_place_id=ChIJX-50I_tp1moRyE2rnZ2GyDA
Sports Optimum Personal Trainer South Yarra,5,28,9/316-320 Toorak Rd,South Yarra,Victoria,AU,http://www.sportsoptimum.com.au/,+61 413 179 737,Personal trainer,https://www.google.com/maps/search/?api=1&query=Sports%20Optimum%20Personal%20Trainer%20South%20Yarra&query_place_id=ChIJP9cZv4NC1moRTnCd9rzJIyM
Main Street Cosmetic & Skin,4.8,135,285 Main St,Lilydale,Victoria,AU,https://mainstreetcosmetic.com.au/?utm_source=google&utm_medium=local&utm_campaign=GBP,+61 3 9739 3830,Skin care clinic,https://www.google.com/maps/search/?api=1&query=Main%20Street%20Cosmetic%20%26%20Skin&query_place_id=ChIJgTO__V0u1moRZ0xCTLoTAxk
Lilydale Doctors,4.6,79,104 Main St,Lilydale,Victoria,AU,http://www.lilydaledoctors.com.au/,+61 3 9088 8177,Medical Center,https://www.google.com/maps/search/?api=1&query=Lilydale%20Doctors&query_place_id=ChIJ0x2EtIwv1moR_L0NjIfVu_Q
Move Me Physio,4.3,30,4 Mainview Blvd,Truganina,Victoria,AU,https://movemephysio.au/,+61 3 8360 5100,Physical therapist,https://www.google.com/maps/search/?api=1&query=Move%20Me%20Physio&query_place_id=ChIJY4rq5yuJ1moRyfXCUZ1yARc
Fitness Success,4.7,36,423 Maroondah Hwy,Croydon North,Victoria,AU,http://www.fitnesssuccess.com.au/,+61 3 9727 2278,Physical fitness program,https://www.google.com/maps/search/?api=1&query=Fitness%20Success&query_place_id=ChIJdyvuJD8w1moR8fc2Izf9jxc
Jessie McPherson Private Hospital,3.4,100,Suite F/246 Clayton Rd,Clayton,Victoria,AU,http://jessiemcpherson.org/,+61 3 9594 2776,Private hospital,https://www.google.com/maps/search/?api=1&query=Jessie%20McPherson%20Private%20Hospital&query_place_id=ChIJMaQWH9lq1moREjKqSaE-sYo
Dr. Sharon Marks,5,3,5 Chesterville Rd,Cheltenham,Victoria,AU,,+61 1300 000 180,Doctor,https://www.google.com/maps/search/?api=1&query=Dr.%20Sharon%20Marks&query_place_id=ChIJcRSgMt9q1moR7Av20jryxJU
Sandringham Hospital,3.7,392,193 Bluff Rd,Sandringham,Victoria,AU,http://www.alfredhealth.org.au/sandringham,+61 3 9076 1000,General hospital,https://www.google.com/maps/search/?api=1&query=Sandringham%20Hospital&query_place_id=ChIJfZRCyPdu1moRzMmACN4pDVU
Dr Joshua Jones - The Village GP,,0,29 Bluff Rd,Black Rock,Victoria,AU,,+61 3 8202 3000,Family practice physician,https://www.google.com/maps/search/?api=1&query=Dr%20Joshua%20Jones%20-%20The%20Village%20GP&query_place_id=ChIJuW_b68pv1moRnceooFSeIcE
Melbourne North West Surgical,3.1,15,198 Pascoe Vale Rd,Moonee Ponds,Victoria,AU,http://www.mnws.com.au/,+61 3 9372 8228,Surgeon,https://www.google.com/maps/search/?api=1&query=Melbourne%20North%20West%20Surgical&query_place_id=ChIJUR-N3Y1c1moRUYhzTDZsaNA
Northern Specialist Group,5,5,"Northern Private Hospital, Level 2, Suite 11/12 Osburn Pl",Epping,Victoria,AU,https://www.northernspecialistgroup.com.au/,+61 1300 678 474,Specialized clinic,https://www.google.com/maps/search/?api=1&query=Northern%20Specialist%20Group&query_place_id=ChIJC2YYaJBP1moRnAfCKgErVkk
Monash House Private Hospital,4,42,"Monash House, 271 Clayton Rd",Clayton,Victoria,AU,https://www.monashhouseprivatehospital.com.au/,+61 3 8394 0700,Private hospital,https://www.google.com/maps/search/?api=1&query=Monash%20House%20Private%20Hospital&query_place_id=ChIJHz2uR99q1moR6JATeqD8bns
ACTIVE ONE Health Professional Group,4.6,36,25 Yuille St,Frankston,Victoria,AU,http://www.activeonegroup.com/,+61 3 8707 0830,Medical Center,https://www.google.com/maps/search/?api=1&query=ACTIVE%20ONE%20Health%20Professional%20Group&query_place_id=ChIJg06bIj111moRIqEYvETzJfE
Coco Ruby Plastic Surgery,4.9,271,759 Burwood Rd,Hawthorn East,Victoria,AU,https://cocorubyplasticsurgery.com.au/?utm_source=Google&utm_medium=organic&utm_campaign=gmb,+61 3 8849 1400,Plastic surgery clinic,https://www.google.com/maps/search/?api=1&query=Coco%20Ruby%20Plastic%20Surgery&query_place_id=ChIJzxXcGYBB1moRziMyGg7VHJk
Hobson Healthcare - Sydenham,4.4,28,566 Melton Hwy,Sydenham,Victoria,AU,http://hobsonhealthcare.com.au/,+61 3 8361 6400,Surgical center,https://www.google.com/maps/search/?api=1&query=Hobson%20Healthcare%20-%20Sydenham&query_place_id=ChIJCQQ8b9z11moRT2r0Eddj-dA
Ringwood Private Hospital,3.2,55,36 Mt Dandenong Rd,Ringwood East,Victoria,AU,https://ringwoodprivatehospital.com.au/,+61 3 8804 4000,Private hospital,https://www.google.com/maps/search/?api=1&query=Ringwood%20Private%20Hospital&query_place_id=ChIJoUtFYDQ61moRZLrDt_WT9kY
John Berends Implements,4.4,12,130 Frankston - Dandenong Rd,Dandenong South,Victoria,AU,https://www.johnberendsimplements.com.au/,+61 3 9791 2494,Farm equipment supplier,https://www.google.com/maps/search/?api=1&query=John%20Berends%20Implements&query_place_id=ChIJyY8q2twT1moRrwRp7z7byY4
Elina Medical,,0,Level 1/65-67 Errol St,North Melbourne,Victoria,AU,https://www.elinaweightloss.com.au/,+61 3 9581 2609,Medical clinic,https://www.google.com/maps/search/?api=1&query=Elina%20Medical&query_place_id=ChIJ50H10QFd1moRomYwoPt5Fjk
Eastern Health Maroondah,3.1,447,1/15 Davey Dr,Ringwood East,Victoria,AU,http://www.easternhealth.org.au/locations/maroondah-hospital,,General hospital,https://www.google.com/maps/search/?api=1&query=Eastern%20Health%20Maroondah&query_place_id=ChIJ33cd6EU61moRNp8XQBK5KtA
Andrea Barr Hair Extensions,5,84,390 Clarendon St,South Melbourne,Victoria,AU,https://www.andreabarr.com.au/,+61 493 756 068,Hair extension technician,https://www.google.com/maps/search/?api=1&query=Andrea%20Barr%20Hair%20Extensions&query_place_id=ChIJJfwWlVBD1moRlckD-hz5wdQ
Nutrition Solutions Victoria,5,4,62 Wellington Parade,East Melbourne,Victoria,AU,https://nutritionsolutionsvictoria.com.au/,+61 3 9417 4087,Nutritionist,https://www.google.com/maps/search/?api=1&query=Nutrition%20Solutions%20Victoria&query_place_id=ChIJcUUbFOhC1moRnpRy7JHejsU